{
"type": "FeatureCollection",
"name": "progresol",
"crs": { "type": "name", "properties": { "name": "urn:ogc:def:crs:OGC:1.3:CRS84" } },
"features": [
{ "type": "Feature", "properties": { "entity_id": "progresol_0_20607522341", "entity_type": "progresol", "TIPO DE PDV": "PS 2.0", "NOMBRE COMERCIAL": "FERRETERIA LA BASE", "RUC": "20607522341", "RAZÓN SOCIAL": "INVERSIONES GENERALES LA BASE S.A.C", "ZONA": "LIMA CENTRO", "SUB ZONA": "LIMA CENTRO", "sububigeo": "15012304", "UBIGEO": "150123", "DISTRITO": "PACHACAMAC", "PROVINCIA": "LIMA", "DEPARTAMEN": "LIMA", "Zonas": "Quebrada de Manchay", "tipo_influencia": "Directa", "abreviatura": "PACH", "min_distance_m": null }, "geometry": { "type": "Point", "coordinates": [ -76.878598, -12.089283 ] } },
{ "type": "Feature", "properties": { "entity_id": "progresol_1_10403246129", "entity_type": "progresol", "TIPO DE PDV": "PS 2.0", "NOMBRE COMERCIAL": "FERRETERIA NANCY", "RUC": "10403246129", "RAZÓN SOCIAL": "REYNOSO ESPINOZA NANCY ROXANA", "ZONA": "LIMA CENTRO", "SUB ZONA": "LIMA CENTRO", "sububigeo": "15012304", "UBIGEO": "150123", "DISTRITO": "PACHACAMAC", "PROVINCIA": "LIMA", "DEPARTAMEN": "LIMA", "Zonas": "Quebrada de Manchay", "tipo_influencia": "Directa", "abreviatura": "PACH", "min_distance_m": null }, "geometry": { "type": "Point", "coordinates": [ -76.880001, -12.098328 ] } },
{ "type": "Feature", "properties": { "entity_id": "progresol_2_10406886994", "entity_type": "progresol", "TIPO DE PDV": "PS 2.0", "NOMBRE COMERCIAL": "FERRETERIA R.I.O.", "RUC": "10406886994", "RAZÓN SOCIAL": "OROSCO GUTIERREZ ELIJOEL", "ZONA": "LIMA CENTRO", "SUB ZONA": "LIMA CENTRO", "sububigeo": "15012304", "UBIGEO": "150123", "DISTRITO": "PACHACAMAC", "PROVINCIA": "LIMA", "DEPARTAMEN": "LIMA", "Zonas": "Quebrada de Manchay", "tipo_influencia": "Directa", "abreviatura": "PACH", "min_distance_m": null }, "geometry": { "type": "Point", "coordinates": [ -76.8735377, -12.1092412 ] } },
{ "type": "Feature", "properties": { "entity_id": "progresol_3_10232572995", "entity_type": "progresol", "TIPO DE PDV": "PS 2.0", "NOMBRE COMERCIAL": "FERRETERIA YENNY", "RUC": "10232572995", "RAZÓN SOCIAL": "CORZO POMA PONCIANO", "ZONA": "LIMA CENTRO", "SUB ZONA": "LIMA CENTRO", "sububigeo": "15012304", "UBIGEO": "150123", "DISTRITO": "PACHACAMAC", "PROVINCIA": "LIMA", "DEPARTAMEN": "LIMA", "Zonas": "Quebrada de Manchay", "tipo_influencia": "Directa", "abreviatura": "PACH", "min_distance_m": null }, "geometry": { "type": "Point", "coordinates": [ -76.878756, -12.100635 ] } },
{ "type": "Feature", "properties": { "entity_id": "progresol_4_20515459074", "entity_type": "progresol", "TIPO DE PDV": "PS 2.0", "NOMBRE COMERCIAL": "DEPOSITO DE MATERIALES DE CONSTRUCCION VIRGEN DE LA MERCED S.A.C.", "RUC": "20515459074", "RAZÓN SOCIAL": "DEPOSITO DE MATERIALES DE CONSTRUCCION VIRGEN DE LA MERCED SAC", "ZONA": "LIMA SUR", "SUB ZONA": "LIMA SUR", "sububigeo": "15013300", "UBIGEO": "150133", "DISTRITO": "SAN JUAN DE MIRAFLORES", "PROVINCIA": "LIMA", "DEPARTAMEN": "LIMA", "Zonas": "Todas Zonas", "tipo_influencia": "Indirecta", "abreviatura": "SJM", "min_distance_m": null }, "geometry": { "type": "Point", "coordinates": [ -76.9598159, -12.1621291 ] } },
{ "type": "Feature", "properties": { "entity_id": "progresol_5_10414612674", "entity_type": "progresol", "TIPO DE PDV": "PS 2.0", "NOMBRE COMERCIAL": "FERRETERIA ALTAMIRANO", "RUC": "10414612674", "RAZÓN SOCIAL": "ALTAMIRANO GUIA MARITZA VANESSA", "ZONA": "LIMA SUR", "SUB ZONA": "LIMA SUR", "sububigeo": "15014200", "UBIGEO": "150142", "DISTRITO": "VILLA EL SALVADOR", "PROVINCIA": "LIMA", "DEPARTAMEN": "LIMA", "Zonas": "Todas Zonas", "tipo_influencia": "Directa", "abreviatura": "VES", "min_distance_m": null }, "geometry": { "type": "Point", "coordinates": [ -76.9164973, -12.2423245 ] } },
{ "type": "Feature", "properties": { "entity_id": "progresol_6_10089625292", "entity_type": "progresol", "TIPO DE PDV": "PS 2.0", "NOMBRE COMERCIAL": "FERRETERIA ARCO IRIS", "RUC": "10089625292", "RAZÓN SOCIAL": "SUNE GONZALES RUPERTO", "ZONA": "LIMA SUR", "SUB ZONA": "LIMA SUR", "sububigeo": "15014303", "UBIGEO": "150143", "DISTRITO": "VILLA MARIA DEL TRIUNFO", "PROVINCIA": "LIMA", "DEPARTAMEN": "LIMA", "Zonas": "Jose Carlos Mariategui", "tipo_influencia": "Directa", "abreviatura": "VMT", "min_distance_m": null }, "geometry": { "type": "Point", "coordinates": [ -76.955265, -12.140641 ] } },
{ "type": "Feature", "properties": { "entity_id": "progresol_7_10107508886", "entity_type": "progresol", "TIPO DE PDV": "PS 2.0", "NOMBRE COMERCIAL": "FERRETERIA AYQUIPA", "RUC": "10107508886", "RAZÓN SOCIAL": "AYQUIPA PEREZ SONIA", "ZONA": "LIMA SUR", "SUB ZONA": "LIMA SUR", "sububigeo": "15014200", "UBIGEO": "150142", "DISTRITO": "VILLA EL SALVADOR", "PROVINCIA": "LIMA", "DEPARTAMEN": "LIMA", "Zonas": "Todas Zonas", "tipo_influencia": "Directa", "abreviatura": "VES", "min_distance_m": null }, "geometry": { "type": "Point", "coordinates": [ -76.9208815, -12.2342737 ] } },
{ "type": "Feature", "properties": { "entity_id": "progresol_8_10095788047", "entity_type": "progresol", "TIPO DE PDV": "PS 2.0", "NOMBRE COMERCIAL": "FERRETERIA CARRASCO", "RUC": "10095788047", "RAZÓN SOCIAL": "PUGA HUACCAYCACHACC APOLINARIA", "ZONA": "LIMA SUR", "SUB ZONA": "LIMA SUR", "sububigeo": "15014306", "UBIGEO": "150143", "DISTRITO": "VILLA MARIA DEL TRIUNFO", "PROVINCIA": "LIMA", "DEPARTAMEN": "LIMA", "Zonas": "San Francisco de la Tablada de Lurin", "tipo_influencia": "Directa", "abreviatura": "VMT", "min_distance_m": null }, "geometry": { "type": "Point", "coordinates": [ -76.926992, -12.190017 ] } },
{ "type": "Feature", "properties": { "entity_id": "progresol_9_20535892432", "entity_type": "progresol", "TIPO DE PDV": "PS 2.0", "NOMBRE COMERCIAL": "FERRETERIA CARRASCO URETA", "RUC": "20535892432", "RAZÓN SOCIAL": "REPRESENTACIONES CARRASCO URETA S.A.C.", "ZONA": "LIMA SUR", "SUB ZONA": "LIMA SUR", "sububigeo": "15014306", "UBIGEO": "150143", "DISTRITO": "VILLA MARIA DEL TRIUNFO", "PROVINCIA": "LIMA", "DEPARTAMEN": "LIMA", "Zonas": "San Francisco de la Tablada de Lurin", "tipo_influencia": "Directa", "abreviatura": "VMT", "min_distance_m": null }, "geometry": { "type": "Point", "coordinates": [ -76.9263291, -12.1996566 ] } },
{ "type": "Feature", "properties": { "entity_id": "progresol_10_10215544368", "entity_type": "progresol", "TIPO DE PDV": "PS 2.0", "NOMBRE COMERCIAL": "FERRETERIA CASCAJAL", "RUC": "10215544368", "RAZÓN SOCIAL": "F & C CASCAJAL E.I.R.L.", "ZONA": "LIMA SUR", "SUB ZONA": "LIMA SUR", "sububigeo": "15013300", "UBIGEO": "150133", "DISTRITO": "SAN JUAN DE MIRAFLORES", "PROVINCIA": "LIMA", "DEPARTAMEN": "LIMA", "Zonas": "Todas Zonas", "tipo_influencia": "Indirecta", "abreviatura": "SJM", "min_distance_m": null }, "geometry": { "type": "Point", "coordinates": [ -76.966423, -12.150938 ] } },
{ "type": "Feature", "properties": { "entity_id": "progresol_11_10090024460", "entity_type": "progresol", "TIPO DE PDV": "PS 2.0", "NOMBRE COMERCIAL": "FERRETERIA CHARITO", "RUC": "10090024460", "RAZÓN SOCIAL": "CHAVEZ HUAMAN ROSARIO", "ZONA": "LIMA SUR", "SUB ZONA": "LIMA SUR", "sububigeo": "15014303", "UBIGEO": "150143", "DISTRITO": "VILLA MARIA DEL TRIUNFO", "PROVINCIA": "LIMA", "DEPARTAMEN": "LIMA", "Zonas": "Jose Carlos Mariategui", "tipo_influencia": "Directa", "abreviatura": "VMT", "min_distance_m": null }, "geometry": { "type": "Point", "coordinates": [ -76.9548482, -12.1444202 ] } },
{ "type": "Feature", "properties": { "entity_id": "progresol_12_10100828133", "entity_type": "progresol", "TIPO DE PDV": "PS 2.0", "NOMBRE COMERCIAL": "FERRETERIA CIEZA", "RUC": "10100828133", "RAZÓN SOCIAL": "VICTOR ROBERTI CIEZA CASTAÑEDA", "ZONA": "LIMA SUR", "SUB ZONA": "LIMA SUR", "sububigeo": "15014200", "UBIGEO": "150142", "DISTRITO": "VILLA EL SALVADOR", "PROVINCIA": "LIMA", "DEPARTAMEN": "LIMA", "Zonas": "Todas Zonas", "tipo_influencia": "Directa", "abreviatura": "VES", "min_distance_m": null }, "geometry": { "type": "Point", "coordinates": [ -76.924196100000017, -12.223412 ] } },
{ "type": "Feature", "properties": { "entity_id": "progresol_13_20613902873", "entity_type": "progresol", "TIPO DE PDV": "PS 2.0", "NOMBRE COMERCIAL": "FERRETERIA CRIZUR", "RUC": "20613902873", "RAZÓN SOCIAL": "WAYRA RMA EIRL", "ZONA": "LIMA SUR", "SUB ZONA": "LIMA SUR", "sububigeo": "15013300", "UBIGEO": "150133", "DISTRITO": "SAN JUAN DE MIRAFLORES", "PROVINCIA": "LIMA", "DEPARTAMEN": "LIMA", "Zonas": "Todas Zonas", "tipo_influencia": "Indirecta", "abreviatura": "SJM", "min_distance_m": null }, "geometry": { "type": "Point", "coordinates": [ -76.9542413, -12.1310477 ] } },
{ "type": "Feature", "properties": { "entity_id": "progresol_14_20550968054", "entity_type": "progresol", "TIPO DE PDV": "PS 2.0", "NOMBRE COMERCIAL": "FERRETERIA DIFERVA", "RUC": "20550968054", "RAZÓN SOCIAL": "DISTRIBUIDORA FERRETERA VARGAS SOCIEDAD ANÓNIMA CERRADA", "ZONA": "LIMA SUR", "SUB ZONA": "LIMA SUR", "sububigeo": "15014200", "UBIGEO": "150142", "DISTRITO": "VILLA EL SALVADOR", "PROVINCIA": "LIMA", "DEPARTAMEN": "LIMA", "Zonas": "Todas Zonas", "tipo_influencia": "Directa", "abreviatura": "VES", "min_distance_m": null }, "geometry": { "type": "Point", "coordinates": [ -76.9356677, -12.2153365 ] } },
{ "type": "Feature", "properties": { "entity_id": "progresol_15_20608775308", "entity_type": "progresol", "TIPO DE PDV": "PS 2.0", "NOMBRE COMERCIAL": "FERRETERIA EDWIN", "RUC": "20608775308", "RAZÓN SOCIAL": "INVERSIONES Y REPRESENTACIONES EDWIN", "ZONA": "LIMA SUR", "SUB ZONA": "LIMA SUR", "sububigeo": "15013300", "UBIGEO": "150133", "DISTRITO": "SAN JUAN DE MIRAFLORES", "PROVINCIA": "LIMA", "DEPARTAMEN": "LIMA", "Zonas": "Todas Zonas", "tipo_influencia": "Indirecta", "abreviatura": "SJM", "min_distance_m": null }, "geometry": { "type": "Point", "coordinates": [ -76.9557317, -12.1840783 ] } },
{ "type": "Feature", "properties": { "entity_id": "progresol_16_20609976706", "entity_type": "progresol", "TIPO DE PDV": "PS 2.0", "NOMBRE COMERCIAL": "FERRETERIA EL ALBAÑIL", "RUC": "20609976706", "RAZÓN SOCIAL": "COMERCIAL EL ALBAÑIL E&E IMPORT EIRL", "ZONA": "LIMA SUR", "SUB ZONA": "LIMA SUR", "sububigeo": "15013300", "UBIGEO": "150133", "DISTRITO": "SAN JUAN DE MIRAFLORES", "PROVINCIA": "LIMA", "DEPARTAMEN": "LIMA", "Zonas": "Todas Zonas", "tipo_influencia": "Indirecta", "abreviatura": "SJM", "min_distance_m": null }, "geometry": { "type": "Point", "coordinates": [ -76.965898, -12.164685 ] } },
{ "type": "Feature", "properties": { "entity_id": "progresol_17_20544596536", "entity_type": "progresol", "TIPO DE PDV": "PS 2.0", "NOMBRE COMERCIAL": "FERRETERIA EL SOL", "RUC": "20544596536", "RAZÓN SOCIAL": "INVERSIONES KALIMAX SAC", "ZONA": "LIMA SUR", "SUB ZONA": "LIMA SUR", "sububigeo": "15014305", "UBIGEO": "150143", "DISTRITO": "VILLA MARIA DEL TRIUNFO", "PROVINCIA": "LIMA", "DEPARTAMEN": "LIMA", "Zonas": "Villa María del Triunfo (Cercado)", "tipo_influencia": "Directa", "abreviatura": "VMT", "min_distance_m": null }, "geometry": { "type": "Point", "coordinates": [ -76.9465012, -12.1660203 ] } },
{ "type": "Feature", "properties": { "entity_id": "progresol_18_10089157566", "entity_type": "progresol", "TIPO DE PDV": "PS 2.0", "NOMBRE COMERCIAL": "FERRETERIA EL SOL VES", "RUC": "10089157566", "RAZÓN SOCIAL": "DE LA CRUZ QUISE JUAN", "ZONA": "LIMA SUR", "SUB ZONA": "LIMA SUR", "sububigeo": "15014200", "UBIGEO": "150142", "DISTRITO": "VILLA EL SALVADOR", "PROVINCIA": "LIMA", "DEPARTAMEN": "LIMA", "Zonas": "Todas Zonas", "tipo_influencia": "Directa", "abreviatura": "VES", "min_distance_m": null }, "geometry": { "type": "Point", "coordinates": [ -76.96873930000001, -12.2168989 ] } },
{ "type": "Feature", "properties": { "entity_id": "progresol_19_10107515530", "entity_type": "progresol", "TIPO DE PDV": "PS 2.0", "NOMBRE COMERCIAL": "FERRETERIA ENCARNACION", "RUC": "10107515530", "RAZÓN SOCIAL": "ENCARNACION ALBERCO FREDY", "ZONA": "LIMA SUR", "SUB ZONA": "LIMA SUR", "sububigeo": "15014200", "UBIGEO": "150142", "DISTRITO": "VILLA EL SALVADOR", "PROVINCIA": "LIMA", "DEPARTAMEN": "LIMA", "Zonas": "Todas Zonas", "tipo_influencia": "Directa", "abreviatura": "VES", "min_distance_m": null }, "geometry": { "type": "Point", "coordinates": [ -76.9466333, -12.2081867 ] } },
{ "type": "Feature", "properties": { "entity_id": "progresol_20_20603688156", "entity_type": "progresol", "TIPO DE PDV": "PS 2.0", "NOMBRE COMERCIAL": "FERRETERIA ERICK", "RUC": "20603688156", "RAZÓN SOCIAL": "F&M ERICK SAC", "ZONA": "LIMA SUR", "SUB ZONA": "LIMA SUR", "sububigeo": "15014304", "UBIGEO": "150143", "DISTRITO": "VILLA MARIA DEL TRIUNFO", "PROVINCIA": "LIMA", "DEPARTAMEN": "LIMA", "Zonas": "Nueva Esperanza", "tipo_influencia": "Directa", "abreviatura": "VMT", "min_distance_m": null }, "geometry": { "type": "Point", "coordinates": [ -76.931531, -12.174235 ] } },
{ "type": "Feature", "properties": { "entity_id": "progresol_21_10089186604", "entity_type": "progresol", "TIPO DE PDV": "PS 2.0", "NOMBRE COMERCIAL": "FERRETERIA FABIA", "RUC": "10089186604", "RAZÓN SOCIAL": "ALDAVE OCROSPOMA DE ZAMALLOA FABIA SULPICIA", "ZONA": "LIMA SUR", "SUB ZONA": "LIMA SUR", "sububigeo": "15014200", "UBIGEO": "150142", "DISTRITO": "VILLA EL SALVADOR", "PROVINCIA": "LIMA", "DEPARTAMEN": "LIMA", "Zonas": "Todas Zonas", "tipo_influencia": "Directa", "abreviatura": "VES", "min_distance_m": null }, "geometry": { "type": "Point", "coordinates": [ -76.9516648, -12.207412 ] } },
{ "type": "Feature", "properties": { "entity_id": "progresol_22_20610850058", "entity_type": "progresol", "TIPO DE PDV": "PS 2.0", "NOMBRE COMERCIAL": "FERRETERIA GRECIA", "RUC": "20610850058", "RAZÓN SOCIAL": "INVERSIONES GRECIA A&H S.A.C", "ZONA": "LIMA SUR", "SUB ZONA": "LIMA SUR", "sububigeo": "15014200", "UBIGEO": "150142", "DISTRITO": "VILLA EL SALVADOR", "PROVINCIA": "LIMA", "DEPARTAMEN": "LIMA", "Zonas": "Todas Zonas", "tipo_influencia": "Directa", "abreviatura": "VES", "min_distance_m": null }, "geometry": { "type": "Point", "coordinates": [ -76.922106, -12.225562 ] } },
{ "type": "Feature", "properties": { "entity_id": "progresol_23_20612876607", "entity_type": "progresol", "TIPO DE PDV": "PS 2.0", "NOMBRE COMERCIAL": "FERRETERIA GUEVAGUZA", "RUC": "20612876607", "RAZÓN SOCIAL": "DISTRIBUIDORA FIERROS Y PERFILES SAC", "ZONA": "LIMA SUR", "SUB ZONA": "LIMA SUR", "sububigeo": "15014200", "UBIGEO": "150142", "DISTRITO": "VILLA EL SALVADOR", "PROVINCIA": "LIMA", "DEPARTAMEN": "LIMA", "Zonas": "Todas Zonas", "tipo_influencia": "Directa", "abreviatura": "VES", "min_distance_m": null }, "geometry": { "type": "Point", "coordinates": [ -76.9173597, -12.2347608 ] } },
{ "type": "Feature", "properties": { "entity_id": "progresol_24_1009688817", "entity_type": "progresol", "TIPO DE PDV": "PS 2.0", "NOMBRE COMERCIAL": "FERRETERIA HUAMAN", "RUC": "1009688817", "RAZÓN SOCIAL": "HUAMAN FLORES AIDA LIDIA", "ZONA": "LIMA SUR", "SUB ZONA": "LIMA SUR", "sububigeo": "15014200", "UBIGEO": "150142", "DISTRITO": "VILLA EL SALVADOR", "PROVINCIA": "LIMA", "DEPARTAMEN": "LIMA", "Zonas": "Todas Zonas", "tipo_influencia": "Directa", "abreviatura": "VES", "min_distance_m": null }, "geometry": { "type": "Point", "coordinates": [ -76.936405, -12.2059217 ] } },
{ "type": "Feature", "properties": { "entity_id": "progresol_25_10227252010", "entity_type": "progresol", "TIPO DE PDV": "PS 2.0", "NOMBRE COMERCIAL": "FERRETERIA HUANUQUEÑO", "RUC": "10227252010", "RAZÓN SOCIAL": "HILARIO TOLENTINO WILFREDO", "ZONA": "LIMA SUR", "SUB ZONA": "LIMA SUR", "sububigeo": "15014305", "UBIGEO": "150143", "DISTRITO": "VILLA MARIA DEL TRIUNFO", "PROVINCIA": "LIMA", "DEPARTAMEN": "LIMA", "Zonas": "Villa María del Triunfo (Cercado)", "tipo_influencia": "Directa", "abreviatura": "VMT", "min_distance_m": null }, "geometry": { "type": "Point", "coordinates": [ -76.94228, -12.16176 ] } },
{ "type": "Feature", "properties": { "entity_id": "progresol_26_10443866600", "entity_type": "progresol", "TIPO DE PDV": "PS 2.0", "NOMBRE COMERCIAL": "FERRETERIA HUAYHUAS 1", "RUC": "10443866600", "RAZÓN SOCIAL": "HUAYHUAS RODRIGUEZ JULIO CESAR", "ZONA": "LIMA SUR", "SUB ZONA": "LIMA SUR", "sububigeo": "15013300", "UBIGEO": "150133", "DISTRITO": "SAN JUAN DE MIRAFLORES", "PROVINCIA": "LIMA", "DEPARTAMEN": "LIMA", "Zonas": "Todas Zonas", "tipo_influencia": "Indirecta", "abreviatura": "SJM", "min_distance_m": null }, "geometry": { "type": "Point", "coordinates": [ -76.958419, -12.131307 ] } },
{ "type": "Feature", "properties": { "entity_id": "progresol_27_10107505496", "entity_type": "progresol", "TIPO DE PDV": "PS 2.0", "NOMBRE COMERCIAL": "FERRETERIA JACQUELINE", "RUC": "10107505496", "RAZÓN SOCIAL": "SUSANA CARDENAS YANQUI", "ZONA": "LIMA SUR", "SUB ZONA": "LIMA SUR", "sububigeo": "15014200", "UBIGEO": "150142", "DISTRITO": "VILLA EL SALVADOR", "PROVINCIA": "LIMA", "DEPARTAMEN": "LIMA", "Zonas": "Todas Zonas", "tipo_influencia": "Directa", "abreviatura": "VES", "min_distance_m": null }, "geometry": { "type": "Point", "coordinates": [ -76.92208, -12.225526 ] } },
{ "type": "Feature", "properties": { "entity_id": "progresol_28_20602850090", "entity_type": "progresol", "TIPO DE PDV": "PS 2.0", "NOMBRE COMERCIAL": "FERRETERIA JOSSELYN", "RUC": "20602850090", "RAZÓN SOCIAL": "INVERSIONES & NEGOCIOS JAM E.I.R.L.", "ZONA": "LIMA SUR", "SUB ZONA": "LIMA SUR", "sububigeo": "15014200", "UBIGEO": "150142", "DISTRITO": "VILLA EL SALVADOR", "PROVINCIA": "LIMA", "DEPARTAMEN": "LIMA", "Zonas": "Todas Zonas", "tipo_influencia": "Directa", "abreviatura": "VES", "min_distance_m": null }, "geometry": { "type": "Point", "coordinates": [ -76.915836, -12.228469 ] } },
{ "type": "Feature", "properties": { "entity_id": "progresol_29_20601149126", "entity_type": "progresol", "TIPO DE PDV": "PS 2.0", "NOMBRE COMERCIAL": "FERRETERIA KADIJA", "RUC": "20601149126", "RAZÓN SOCIAL": "KAVIF E.I.R.L.", "ZONA": "LIMA SUR", "SUB ZONA": "LIMA SUR", "sububigeo": "15014200", "UBIGEO": "150142", "DISTRITO": "VILLA EL SALVADOR", "PROVINCIA": "LIMA", "DEPARTAMEN": "LIMA", "Zonas": "Todas Zonas", "tipo_influencia": "Directa", "abreviatura": "VES", "min_distance_m": null }, "geometry": { "type": "Point", "coordinates": [ -76.944141666666695, -12.195908333333294 ] } },
{ "type": "Feature", "properties": { "entity_id": "progresol_30_20479078379", "entity_type": "progresol", "TIPO DE PDV": "PS 2.0", "NOMBRE COMERCIAL": "FERRETERIA KARINA", "RUC": "20479078379", "RAZÓN SOCIAL": "FERRETERIA KARINA G.L. E.I.R.L.", "ZONA": "LIMA SUR", "SUB ZONA": "LIMA SUR", "sububigeo": "15014200", "UBIGEO": "150142", "DISTRITO": "VILLA EL SALVADOR", "PROVINCIA": "LIMA", "DEPARTAMEN": "LIMA", "Zonas": "Todas Zonas", "tipo_influencia": "Directa", "abreviatura": "VES", "min_distance_m": null }, "geometry": { "type": "Point", "coordinates": [ -76.947226, -12.212288 ] } },
{ "type": "Feature", "properties": { "entity_id": "progresol_31_20613424912", "entity_type": "progresol", "TIPO DE PDV": "PS 2.0", "NOMBRE COMERCIAL": "FERRETERIA LA SOLUCION SJM", "RUC": "20613424912", "RAZÓN SOCIAL": "FERRETERIA LA SOLUCIÓN RAMSA S.A.C", "ZONA": "LIMA SUR", "SUB ZONA": "LIMA SUR", "sububigeo": "15013300", "UBIGEO": "150133", "DISTRITO": "SAN JUAN DE MIRAFLORES", "PROVINCIA": "LIMA", "DEPARTAMEN": "LIMA", "Zonas": "Todas Zonas", "tipo_influencia": "Indirecta", "abreviatura": "SJM", "min_distance_m": null }, "geometry": { "type": "Point", "coordinates": [ -76.949942, -12.131404 ] } },
{ "type": "Feature", "properties": { "entity_id": "progresol_32_10422075998", "entity_type": "progresol", "TIPO DE PDV": "PS 2.0", "NOMBRE COMERCIAL": "FERRETERIA LA UNION", "RUC": "10422075998", "RAZÓN SOCIAL": "URSUA FLORES LUIS GUILLERMO", "ZONA": "LIMA SUR", "SUB ZONA": "LIMA SUR", "sububigeo": "15014200", "UBIGEO": "150142", "DISTRITO": "VILLA EL SALVADOR", "PROVINCIA": "LIMA", "DEPARTAMEN": "LIMA", "Zonas": "Todas Zonas", "tipo_influencia": "Directa", "abreviatura": "VES", "min_distance_m": null }, "geometry": { "type": "Point", "coordinates": [ -76.9505832, -12.2014633 ] } },
{ "type": "Feature", "properties": { "entity_id": "progresol_33_20506256306", "entity_type": "progresol", "TIPO DE PDV": "PS 2.0", "NOMBRE COMERCIAL": "FERRETERIA LOS ANGELES", "RUC": "20506256306", "RAZÓN SOCIAL": "INVERSIONES COMERCIALES LOS ANGELES", "ZONA": "LIMA SUR", "SUB ZONA": "LIMA SUR", "sububigeo": "15013300", "UBIGEO": "150133", "DISTRITO": "SAN JUAN DE MIRAFLORES", "PROVINCIA": "LIMA", "DEPARTAMEN": "LIMA", "Zonas": "Todas Zonas", "tipo_influencia": "Indirecta", "abreviatura": "SJM", "min_distance_m": null }, "geometry": { "type": "Point", "coordinates": [ -76.976091, -12.151646 ] } },
{ "type": "Feature", "properties": { "entity_id": "progresol_34_10105941418", "entity_type": "progresol", "TIPO DE PDV": "PS 2.0", "NOMBRE COMERCIAL": "FERRETERIA MACOFE", "RUC": "10105941418", "RAZÓN SOCIAL": "CANCHAN TORRES PAMELA", "ZONA": "LIMA SUR", "SUB ZONA": "LIMA SUR", "sububigeo": "15014200", "UBIGEO": "150142", "DISTRITO": "VILLA EL SALVADOR", "PROVINCIA": "LIMA", "DEPARTAMEN": "LIMA", "Zonas": "Todas Zonas", "tipo_influencia": "Directa", "abreviatura": "VES", "min_distance_m": null }, "geometry": { "type": "Point", "coordinates": [ -76.9365039, -12.2066929 ] } },
{ "type": "Feature", "properties": { "entity_id": "progresol_35_10089131184", "entity_type": "progresol", "TIPO DE PDV": "PS 2.0", "NOMBRE COMERCIAL": "FERRETERIA MAREATEGUI", "RUC": "10089131184", "RAZÓN SOCIAL": "VALLES SALDANA CARMEN", "ZONA": "LIMA SUR", "SUB ZONA": "LIMA SUR", "sububigeo": "15014200", "UBIGEO": "150142", "DISTRITO": "VILLA EL SALVADOR", "PROVINCIA": "LIMA", "DEPARTAMEN": "LIMA", "Zonas": "Todas Zonas", "tipo_influencia": "Directa", "abreviatura": "VES", "min_distance_m": null }, "geometry": { "type": "Point", "coordinates": [ -76.933458, -12.221377 ] } },
{ "type": "Feature", "properties": { "entity_id": "progresol_36_10107821649", "entity_type": "progresol", "TIPO DE PDV": "PS 2.0", "NOMBRE COMERCIAL": "FERRETERIA MARTINEZ", "RUC": "10107821649", "RAZÓN SOCIAL": "NIÑO GONZALES ZUÑIGA ROSARIO BERTILA", "ZONA": "LIMA SUR", "SUB ZONA": "LIMA SUR", "sububigeo": "15014200", "UBIGEO": "150142", "DISTRITO": "VILLA EL SALVADOR", "PROVINCIA": "LIMA", "DEPARTAMEN": "LIMA", "Zonas": "Todas Zonas", "tipo_influencia": "Directa", "abreviatura": "VES", "min_distance_m": null }, "geometry": { "type": "Point", "coordinates": [ -76.9734651, -12.2056759 ] } },
{ "type": "Feature", "properties": { "entity_id": "progresol_37_20602634648", "entity_type": "progresol", "TIPO DE PDV": "PS 2.0", "NOMBRE COMERCIAL": "FERRETERIA ORIENTE", "RUC": "20602634648", "RAZÓN SOCIAL": "DIFER VPG S.A.C.", "ZONA": "LIMA SUR", "SUB ZONA": "LIMA SUR", "sububigeo": "15014303", "UBIGEO": "150143", "DISTRITO": "VILLA MARIA DEL TRIUNFO", "PROVINCIA": "LIMA", "DEPARTAMEN": "LIMA", "Zonas": "Jose Carlos Mariategui", "tipo_influencia": "Directa", "abreviatura": "VMT", "min_distance_m": null }, "geometry": { "type": "Point", "coordinates": [ -76.942003, -12.142177 ] } },
{ "type": "Feature", "properties": { "entity_id": "progresol_38_20548612811", "entity_type": "progresol", "TIPO DE PDV": "PS 2.0", "NOMBRE COMERCIAL": "FERRETERIA P&R", "RUC": "20548612811", "RAZÓN SOCIAL": "FERRETERIA DEPOSITO P & R S.A.C.", "ZONA": "LIMA SUR", "SUB ZONA": "LIMA SUR", "sububigeo": "15014200", "UBIGEO": "150142", "DISTRITO": "VILLA EL SALVADOR", "PROVINCIA": "LIMA", "DEPARTAMEN": "LIMA", "Zonas": "Todas Zonas", "tipo_influencia": "Directa", "abreviatura": "VES", "min_distance_m": null }, "geometry": { "type": "Point", "coordinates": [ -76.9557927, -12.1968652 ] } },
{ "type": "Feature", "properties": { "entity_id": "progresol_39_10472255954", "entity_type": "progresol", "TIPO DE PDV": "PS 2.0", "NOMBRE COMERCIAL": "FERRETERIA PARAISO", "RUC": "10472255954", "RAZÓN SOCIAL": "CHUMBE ROMAN SILVIA", "ZONA": "LIMA SUR", "SUB ZONA": "LIMA SUR", "sububigeo": "15014303", "UBIGEO": "150143", "DISTRITO": "VILLA MARIA DEL TRIUNFO", "PROVINCIA": "LIMA", "DEPARTAMEN": "LIMA", "Zonas": "Jose Carlos Mariategui", "tipo_influencia": "Directa", "abreviatura": "VMT", "min_distance_m": null }, "geometry": { "type": "Point", "coordinates": [ -76.93546, -12.146292 ] } },
{ "type": "Feature", "properties": { "entity_id": "progresol_40_20610133861", "entity_type": "progresol", "TIPO DE PDV": "PS 2.0", "NOMBRE COMERCIAL": "FERRETERIA PICON", "RUC": "20610133861", "RAZÓN SOCIAL": "CONSORCIO FERRETERIA PICON SAC", "ZONA": "LIMA SUR", "SUB ZONA": "LIMA SUR", "sububigeo": "15014306", "UBIGEO": "150143", "DISTRITO": "VILLA MARIA DEL TRIUNFO", "PROVINCIA": "LIMA", "DEPARTAMEN": "LIMA", "Zonas": "San Francisco de la Tablada de Lurin", "tipo_influencia": "Directa", "abreviatura": "VMT", "min_distance_m": null }, "geometry": { "type": "Point", "coordinates": [ -76.926017, -12.18114 ] } },
{ "type": "Feature", "properties": { "entity_id": "progresol_41_10088218502", "entity_type": "progresol", "TIPO DE PDV": "PS 2.0", "NOMBRE COMERCIAL": "FERRETERIA PUMAHUIRI", "RUC": "10088218502", "RAZÓN SOCIAL": "CCORAHUA CALLA ELIAZAR", "ZONA": "LIMA SUR", "SUB ZONA": "LIMA SUR", "sububigeo": "15013300", "UBIGEO": "150133", "DISTRITO": "SAN JUAN DE MIRAFLORES", "PROVINCIA": "LIMA", "DEPARTAMEN": "LIMA", "Zonas": "Todas Zonas", "tipo_influencia": "Indirecta", "abreviatura": "SJM", "min_distance_m": null }, "geometry": { "type": "Point", "coordinates": [ -76.959805, -12.128729 ] } },
{ "type": "Feature", "properties": { "entity_id": "progresol_42_20601135745", "entity_type": "progresol", "TIPO DE PDV": "PS 2.0", "NOMBRE COMERCIAL": "FERRETERIA QUIRA", "RUC": "20601135745", "RAZÓN SOCIAL": "CORPORACION MATERIALES QUIRA SOCIEDAD ANONIMA CERRADACOMAQUI S.A.C.", "ZONA": "LIMA SUR", "SUB ZONA": "LIMA SUR", "sububigeo": "15014307", "UBIGEO": "150143", "DISTRITO": "VILLA MARIA DEL TRIUNFO", "PROVINCIA": "LIMA", "DEPARTAMEN": "LIMA", "Zonas": "Villa Poeta José Gálvez", "tipo_influencia": "Directa", "abreviatura": "VMT", "min_distance_m": null }, "geometry": { "type": "Point", "coordinates": [ -76.9074707, -12.21344662 ] } },
{ "type": "Feature", "properties": { "entity_id": "progresol_43_20511516235", "entity_type": "progresol", "TIPO DE PDV": "PS 2.0", "NOMBRE COMERCIAL": "FERRETERIA QUISPE", "RUC": "20511516235", "RAZÓN SOCIAL": "FERRECASA QUISPE SOCIEDAD ANONIMA CERRADA", "ZONA": "LIMA SUR", "SUB ZONA": "LIMA SUR", "sububigeo": "15014303", "UBIGEO": "150143", "DISTRITO": "VILLA MARIA DEL TRIUNFO", "PROVINCIA": "LIMA", "DEPARTAMEN": "LIMA", "Zonas": "Jose Carlos Mariategui", "tipo_influencia": "Directa", "abreviatura": "VMT", "min_distance_m": null }, "geometry": { "type": "Point", "coordinates": [ -76.945365, -12.147657 ] } },
{ "type": "Feature", "properties": { "entity_id": "progresol_44_20523554272", "entity_type": "progresol", "TIPO DE PDV": "PS 2.0", "NOMBRE COMERCIAL": "FERRETERIA RAMOS", "RUC": "20523554272", "RAZÓN SOCIAL": "FEMATER E.I.R.L.", "ZONA": "LIMA SUR", "SUB ZONA": "LIMA SUR", "sububigeo": "15014200", "UBIGEO": "150142", "DISTRITO": "VILLA EL SALVADOR", "PROVINCIA": "LIMA", "DEPARTAMEN": "LIMA", "Zonas": "Todas Zonas", "tipo_influencia": "Directa", "abreviatura": "VES", "min_distance_m": null }, "geometry": { "type": "Point", "coordinates": [ -76.926514, -12.242508 ] } },
{ "type": "Feature", "properties": { "entity_id": "progresol_45_10429108662", "entity_type": "progresol", "TIPO DE PDV": "PS 2.0", "NOMBRE COMERCIAL": "FERRETERIA RIBEL", "RUC": "10429108662", "RAZÓN SOCIAL": "LAZO VARGAS RICHARD", "ZONA": "LIMA SUR", "SUB ZONA": "LIMA SUR", "sububigeo": "15014200", "UBIGEO": "150142", "DISTRITO": "VILLA EL SALVADOR", "PROVINCIA": "LIMA", "DEPARTAMEN": "LIMA", "Zonas": "Todas Zonas", "tipo_influencia": "Directa", "abreviatura": "VES", "min_distance_m": null }, "geometry": { "type": "Point", "coordinates": [ -76.935855, -12.2233733 ] } },
{ "type": "Feature", "properties": { "entity_id": "progresol_46_10089999061", "entity_type": "progresol", "TIPO DE PDV": "PS 2.0", "NOMBRE COMERCIAL": "FERRETERIA SAN JOSE LLANCARI", "RUC": "10089999061", "RAZÓN SOCIAL": "DISTRIBUIDORA FERRETERA EL APU V&G EIRL", "ZONA": "LIMA SUR", "SUB ZONA": "LIMA SUR", "sububigeo": "15014305", "UBIGEO": "150143", "DISTRITO": "VILLA MARIA DEL TRIUNFO", "PROVINCIA": "LIMA", "DEPARTAMEN": "LIMA", "Zonas": "Villa María del Triunfo (Cercado)", "tipo_influencia": "Directa", "abreviatura": "VMT", "min_distance_m": null }, "geometry": { "type": "Point", "coordinates": [ -76.9484016, -12.1634984 ] } },
{ "type": "Feature", "properties": { "entity_id": "progresol_47_10100330658", "entity_type": "progresol", "TIPO DE PDV": "PS 2.0", "NOMBRE COMERCIAL": "FERRETERIA SANCHEZ", "RUC": "10100330658", "RAZÓN SOCIAL": "SANCHEZ CCAHUANA JOSE", "ZONA": "LIMA SUR", "SUB ZONA": "LIMA SUR", "sububigeo": "15013300", "UBIGEO": "150133", "DISTRITO": "SAN JUAN DE MIRAFLORES", "PROVINCIA": "LIMA", "DEPARTAMEN": "LIMA", "Zonas": "Todas Zonas", "tipo_influencia": "Indirecta", "abreviatura": "SJM", "min_distance_m": null }, "geometry": { "type": "Point", "coordinates": [ -76.956303, -12.1315 ] } },
{ "type": "Feature", "properties": { "entity_id": "progresol_48_10100744614", "entity_type": "progresol", "TIPO DE PDV": "PS 2.0", "NOMBRE COMERCIAL": "FERRETERIA SANTA ROSA 2", "RUC": "10100744614", "RAZÓN SOCIAL": "CAYETANO LLANCARI PABLO JUVENAL", "ZONA": "LIMA SUR", "SUB ZONA": "LIMA SUR", "sububigeo": "15014200", "UBIGEO": "150142", "DISTRITO": "VILLA EL SALVADOR", "PROVINCIA": "LIMA", "DEPARTAMEN": "LIMA", "Zonas": "Todas Zonas", "tipo_influencia": "Directa", "abreviatura": "VES", "min_distance_m": null }, "geometry": { "type": "Point", "coordinates": [ -76.9114113, -12.2343638 ] } },
{ "type": "Feature", "properties": { "entity_id": "progresol_49_10215574844", "entity_type": "progresol", "TIPO DE PDV": "PS 2.0", "NOMBRE COMERCIAL": "FERRETERIA SARAVIA", "RUC": "10215574844", "RAZÓN SOCIAL": "SARAVIA MUÑOA ELMER DAVID", "ZONA": "LIMA SUR", "SUB ZONA": "LIMA SUR", "sububigeo": "15014306", "UBIGEO": "150143", "DISTRITO": "VILLA MARIA DEL TRIUNFO", "PROVINCIA": "LIMA", "DEPARTAMEN": "LIMA", "Zonas": "San Francisco de la Tablada de Lurin", "tipo_influencia": "Directa", "abreviatura": "VMT", "min_distance_m": null }, "geometry": { "type": "Point", "coordinates": [ -76.9261929, -12.2009695 ] } },
{ "type": "Feature", "properties": { "entity_id": "progresol_50_20609586649", "entity_type": "progresol", "TIPO DE PDV": "PS 2.0", "NOMBRE COMERCIAL": "FERRETERIA SAVIÑA", "RUC": "20609586649", "RAZÓN SOCIAL": "CORPORACIÓN JK MAQUINARIAS S.A.C", "ZONA": "LIMA SUR", "SUB ZONA": "LIMA SUR", "sububigeo": "15014200", "UBIGEO": "150142", "DISTRITO": "VILLA EL SALVADOR", "PROVINCIA": "LIMA", "DEPARTAMEN": "LIMA", "Zonas": "Todas Zonas", "tipo_influencia": "Directa", "abreviatura": "VES", "min_distance_m": null }, "geometry": { "type": "Point", "coordinates": [ -76.926306, -12.243028 ] } },
{ "type": "Feature", "properties": { "entity_id": "progresol_51_10470888542", "entity_type": "progresol", "TIPO DE PDV": "PS 2.0", "NOMBRE COMERCIAL": "FERRETERIA SS CONSTRUCCIONES", "RUC": "10470888542", "RAZÓN SOCIAL": "SUNE CHAVEZ JHONATAN", "ZONA": "LIMA SUR", "SUB ZONA": "LIMA SUR", "sububigeo": "15014303", "UBIGEO": "150143", "DISTRITO": "VILLA MARIA DEL TRIUNFO", "PROVINCIA": "LIMA", "DEPARTAMEN": "LIMA", "Zonas": "Jose Carlos Mariategui", "tipo_influencia": "Directa", "abreviatura": "VMT", "min_distance_m": null }, "geometry": { "type": "Point", "coordinates": [ -76.948273333333304, -12.140266666666701 ] } },
{ "type": "Feature", "properties": { "entity_id": "progresol_52_20544242645", "entity_type": "progresol", "TIPO DE PDV": "PS 2.0", "NOMBRE COMERCIAL": "FERRETERIA SUNI", "RUC": "20544242645", "RAZÓN SOCIAL": "FERRETERIA SUNI S.A.C", "ZONA": "LIMA SUR", "SUB ZONA": "LIMA SUR", "sububigeo": "15014306", "UBIGEO": "150143", "DISTRITO": "VILLA MARIA DEL TRIUNFO", "PROVINCIA": "LIMA", "DEPARTAMEN": "LIMA", "Zonas": "San Francisco de la Tablada de Lurin", "tipo_influencia": "Directa", "abreviatura": "VMT", "min_distance_m": null }, "geometry": { "type": "Point", "coordinates": [ -76.9334, -12.191873 ] } },
{ "type": "Feature", "properties": { "entity_id": "progresol_53_20601408661", "entity_type": "progresol", "TIPO DE PDV": "PS 2.0", "NOMBRE COMERCIAL": "FERRETERIA TARMA", "RUC": "20601408661", "RAZÓN SOCIAL": "CORPORACION CARRASCO FLORES S.A.C.", "ZONA": "LIMA SUR", "SUB ZONA": "LIMA SUR", "sububigeo": "15014307", "UBIGEO": "150143", "DISTRITO": "VILLA MARIA DEL TRIUNFO", "PROVINCIA": "LIMA", "DEPARTAMEN": "LIMA", "Zonas": "Villa Poeta José Gálvez", "tipo_influencia": "Directa", "abreviatura": "VMT", "min_distance_m": null }, "geometry": { "type": "Point", "coordinates": [ -76.907152, -12.210907 ] } },
{ "type": "Feature", "properties": { "entity_id": "progresol_54_20602746837", "entity_type": "progresol", "TIPO DE PDV": "PS 2.0", "NOMBRE COMERCIAL": "FERRETERIA TORREJON", "RUC": "20602746837", "RAZÓN SOCIAL": "DISTRIBUIDORA TORREJON SAC", "ZONA": "LIMA SUR", "SUB ZONA": "LIMA SUR", "sububigeo": "15014200", "UBIGEO": "150142", "DISTRITO": "VILLA EL SALVADOR", "PROVINCIA": "LIMA", "DEPARTAMEN": "LIMA", "Zonas": "Todas Zonas", "tipo_influencia": "Directa", "abreviatura": "VES", "min_distance_m": null }, "geometry": { "type": "Point", "coordinates": [ -76.920044, -12.244396 ] } },
{ "type": "Feature", "properties": { "entity_id": "progresol_55_10089049151", "entity_type": "progresol", "TIPO DE PDV": "PS 2.0", "NOMBRE COMERCIAL": "FERRETERIA UZURIAGA", "RUC": "10089049151", "RAZÓN SOCIAL": "UZURIAGA DAMIAN GODOFREDO", "ZONA": "LIMA SUR", "SUB ZONA": "LIMA SUR", "sububigeo": "15014200", "UBIGEO": "150142", "DISTRITO": "VILLA EL SALVADOR", "PROVINCIA": "LIMA", "DEPARTAMEN": "LIMA", "Zonas": "Todas Zonas", "tipo_influencia": "Directa", "abreviatura": "VES", "min_distance_m": null }, "geometry": { "type": "Point", "coordinates": [ -76.9508686, -12.2213813 ] } },
{ "type": "Feature", "properties": { "entity_id": "progresol_56_10402666876", "entity_type": "progresol", "TIPO DE PDV": "PS 2.0", "NOMBRE COMERCIAL": "FERRETERIA VILLANUEVA", "RUC": "10402666876", "RAZÓN SOCIAL": "VILLANUEVA BRANDAN ENOS NOE", "ZONA": "LIMA SUR", "SUB ZONA": "LIMA SUR", "sububigeo": "15014200", "UBIGEO": "150142", "DISTRITO": "VILLA EL SALVADOR", "PROVINCIA": "LIMA", "DEPARTAMEN": "LIMA", "Zonas": "Todas Zonas", "tipo_influencia": "Directa", "abreviatura": "VES", "min_distance_m": null }, "geometry": { "type": "Point", "coordinates": [ -76.926569, -12.242418 ] } },
{ "type": "Feature", "properties": { "entity_id": "progresol_57_10101024496", "entity_type": "progresol", "TIPO DE PDV": "PS 2.0", "NOMBRE COMERCIAL": "FERRETERIA VIRGEN DEL CARMEN", "RUC": "10101024496", "RAZÓN SOCIAL": "PACHAS JIMENEZ FELICITA INES", "ZONA": "LIMA SUR", "SUB ZONA": "LIMA SUR", "sububigeo": "15014305", "UBIGEO": "150143", "DISTRITO": "VILLA MARIA DEL TRIUNFO", "PROVINCIA": "LIMA", "DEPARTAMEN": "LIMA", "Zonas": "Villa María del Triunfo (Cercado)", "tipo_influencia": "Directa", "abreviatura": "VMT", "min_distance_m": null }, "geometry": { "type": "Point", "coordinates": [ -76.9511028, -12.1642264 ] } },
{ "type": "Feature", "properties": { "entity_id": "progresol_58_10090008388", "entity_type": "progresol", "TIPO DE PDV": "PS 2.0", "NOMBRE COMERCIAL": "FERRETERIA ZAPATA", "RUC": "10090008388", "RAZÓN SOCIAL": "ZAPATA ARAPA JORGE", "ZONA": "LIMA SUR", "SUB ZONA": "LIMA SUR", "sububigeo": "15014302", "UBIGEO": "150143", "DISTRITO": "VILLA MARIA DEL TRIUNFO", "PROVINCIA": "LIMA", "DEPARTAMEN": "LIMA", "Zonas": "Nuevo Milenio", "tipo_influencia": "Directa", "abreviatura": "VMT", "min_distance_m": null }, "geometry": { "type": "Point", "coordinates": [ -76.9248265, -12.2048383 ] } },
{ "type": "Feature", "properties": { "entity_id": "progresol_59_20612776823", "entity_type": "progresol", "TIPO DE PDV": "PS 2.0", "NOMBRE COMERCIAL": "SARITA ROBLES S.A.C", "RUC": "20612776823", "RAZÓN SOCIAL": "FERRETERIA Y SERVICIOS MULTIPLES SARITA ROBLES S.A.C", "ZONA": "LIMA SUR", "SUB ZONA": "LIMA SUR", "sububigeo": "15013300", "UBIGEO": "150133", "DISTRITO": "SAN JUAN DE MIRAFLORES", "PROVINCIA": "LIMA", "DEPARTAMEN": "LIMA", "Zonas": "Todas Zonas", "tipo_influencia": "Indirecta", "abreviatura": "SJM", "min_distance_m": null }, "geometry": { "type": "Point", "coordinates": [ -76.966025, -12.136449 ] } },
{ "type": "Feature", "properties": { "entity_id": "progresol_60_10078871488", "entity_type": "progresol", "TIPO DE PDV": "PS 2.0", "NOMBRE COMERCIAL": "FERRETERIA AGUIRRE", "RUC": "10078871488", "RAZÓN SOCIAL": "AGUIRRE PEREZ ANTONIO", "ZONA": "LIMA SUR", "SUB ZONA": "LIMA SUR", "sububigeo": "15012301", "UBIGEO": "150123", "DISTRITO": "PACHACAMAC", "PROVINCIA": "LIMA", "DEPARTAMEN": "LIMA", "Zonas": "Pachacamac histórico", "tipo_influencia": "Directa", "abreviatura": "PACH", "min_distance_m": 479.66786871836069 }, "geometry": { "type": "Point", "coordinates": [ -76.8751949, -12.211581 ] } },
{ "type": "Feature", "properties": { "entity_id": "progresol_61_20509663484", "entity_type": "progresol", "TIPO DE PDV": "PS 2.0", "NOMBRE COMERCIAL": "FERRETERIA ARROYO", "RUC": "20509663484", "RAZÓN SOCIAL": "NEGOCIOS SERVICIOS Y LOGISTICA INTEGRAL S.A.C", "ZONA": "LIMA SUR", "SUB ZONA": "LIMA SUR", "sububigeo": "15011900", "UBIGEO": "150119", "DISTRITO": "LURIN", "PROVINCIA": "LIMA", "DEPARTAMEN": "LIMA", "Zonas": "Todas Zonas", "tipo_influencia": "Directa", "abreviatura": "LUR", "min_distance_m": 418.25909047667284 }, "geometry": { "type": "Point", "coordinates": [ -76.8891296, -12.2562459 ] } },
{ "type": "Feature", "properties": { "entity_id": "progresol_62_20552807970", "entity_type": "progresol", "TIPO DE PDV": "PS 2.0", "NOMBRE COMERCIAL": "FERRETERIA BRIHANNA", "RUC": "20552807970", "RAZÓN SOCIAL": "CONSORCIO UNIÓN FERRETERA SAC", "ZONA": "LIMA SUR", "SUB ZONA": "LIMA SUR", "sububigeo": "15011900", "UBIGEO": "150119", "DISTRITO": "LURIN", "PROVINCIA": "LIMA", "DEPARTAMEN": "LIMA", "Zonas": "Todas Zonas", "tipo_influencia": "Directa", "abreviatura": "LUR", "min_distance_m": null }, "geometry": { "type": "Point", "coordinates": [ -76.857142, -12.274065 ] } },
{ "type": "Feature", "properties": { "entity_id": "progresol_63_20553440352", "entity_type": "progresol", "TIPO DE PDV": "PS 2.0", "NOMBRE COMERCIAL": "FERRETERIA CAYCHO", "RUC": "20553440352", "RAZÓN SOCIAL": "DEPÓSITO FERRETERÍA CAYCHO E.I.R.L.", "ZONA": "LIMA SUR", "SUB ZONA": "LIMA SUR", "sububigeo": "15011900", "UBIGEO": "150119", "DISTRITO": "LURIN", "PROVINCIA": "LIMA", "DEPARTAMEN": "LIMA", "Zonas": "Todas Zonas", "tipo_influencia": "Directa", "abreviatura": "LUR", "min_distance_m": null }, "geometry": { "type": "Point", "coordinates": [ -76.87308842, -12.2730635 ] } },
{ "type": "Feature", "properties": { "entity_id": "progresol_64_10076939867", "entity_type": "progresol", "TIPO DE PDV": "PS 2.0", "NOMBRE COMERCIAL": "FERRETERIA DANIEL", "RUC": "10076939867", "RAZÓN SOCIAL": "CAYCHO MORALES DANIEL ADOLFO", "ZONA": "LIMA SUR", "SUB ZONA": "LIMA SUR", "sububigeo": "15011900", "UBIGEO": "150119", "DISTRITO": "LURIN", "PROVINCIA": "LIMA", "DEPARTAMEN": "LIMA", "Zonas": "Todas Zonas", "tipo_influencia": "Directa", "abreviatura": "LUR", "min_distance_m": 326.80829128804714 }, "geometry": { "type": "Point", "coordinates": [ -76.8964277, -12.2485983 ] } },
{ "type": "Feature", "properties": { "entity_id": "progresol_65_10189817008", "entity_type": "progresol", "TIPO DE PDV": "PS 2.0", "NOMBRE COMERCIAL": "FERRETERIA DEPOSITO DE MATERIALES ANGELA", "RUC": "10189817008", "RAZÓN SOCIAL": "GRUPO V&A PECHE SAC", "ZONA": "LIMA SUR", "SUB ZONA": "LIMA SUR", "sububigeo": "15013300", "UBIGEO": "150133", "DISTRITO": "SAN JUAN DE MIRAFLORES", "PROVINCIA": "LIMA", "DEPARTAMEN": "LIMA", "Zonas": "Todas Zonas", "tipo_influencia": "Indirecta", "abreviatura": "SJM", "min_distance_m": null }, "geometry": { "type": "Point", "coordinates": [ -76.982617, -12.163 ] } },
{ "type": "Feature", "properties": { "entity_id": "progresol_66_10103046560", "entity_type": "progresol", "TIPO DE PDV": "PS 2.0", "NOMBRE COMERCIAL": "FERRETERIA DIEGO", "RUC": "10103046560", "RAZÓN SOCIAL": "DIONISIO HUAUYA YUCRA", "ZONA": "LIMA SUR", "SUB ZONA": "LIMA SUR", "sububigeo": "15013300", "UBIGEO": "150133", "DISTRITO": "SAN JUAN DE MIRAFLORES", "PROVINCIA": "LIMA", "DEPARTAMEN": "LIMA", "Zonas": "Todas Zonas", "tipo_influencia": "Indirecta", "abreviatura": "SJM", "min_distance_m": null }, "geometry": { "type": "Point", "coordinates": [ -76.979363, -12.1894981 ] } },
{ "type": "Feature", "properties": { "entity_id": "progresol_67_20610206337", "entity_type": "progresol", "TIPO DE PDV": "PS 2.0", "NOMBRE COMERCIAL": "FERRETERIA HATUN", "RUC": "20610206337", "RAZÓN SOCIAL": "HATUNSALES S.A.C.", "ZONA": "LIMA SUR", "SUB ZONA": "LIMA SUR", "sububigeo": "15011900", "UBIGEO": "150119", "DISTRITO": "LURIN", "PROVINCIA": "LIMA", "DEPARTAMEN": "LIMA", "Zonas": "Todas Zonas", "tipo_influencia": "Directa", "abreviatura": "LUR", "min_distance_m": null }, "geometry": { "type": "Point", "coordinates": [ -76.864205, -12.279119 ] } },
{ "type": "Feature", "properties": { "entity_id": "progresol_68_10478052338", "entity_type": "progresol", "TIPO DE PDV": "PS 2.0", "NOMBRE COMERCIAL": "FERRETERIA HUAMAN YANCITO", "RUC": "10478052338", "RAZÓN SOCIAL": "DEYSI RAQUEL URIARTE ESTICA", "ZONA": "LIMA SUR", "SUB ZONA": "LIMA SUR", "sububigeo": "15011900", "UBIGEO": "150119", "DISTRITO": "LURIN", "PROVINCIA": "LIMA", "DEPARTAMEN": "LIMA", "Zonas": "Todas Zonas", "tipo_influencia": "Directa", "abreviatura": "LUR", "min_distance_m": null }, "geometry": { "type": "Point", "coordinates": [ -76.841508, -12.221653 ] } },
{ "type": "Feature", "properties": { "entity_id": "progresol_69_20609006154", "entity_type": "progresol", "TIPO DE PDV": "PS 2.0", "NOMBRE COMERCIAL": "FERRETERIA KATECO", "RUC": "20609006154", "RAZÓN SOCIAL": "SERVICIOS GENERALES KATECO E.I.R.L", "ZONA": "LIMA SUR", "SUB ZONA": "LIMA SUR", "sububigeo": "15011900", "UBIGEO": "150119", "DISTRITO": "LURIN", "PROVINCIA": "LIMA", "DEPARTAMEN": "LIMA", "Zonas": "Todas Zonas", "tipo_influencia": "Directa", "abreviatura": "LUR", "min_distance_m": 1277.072451547619 }, "geometry": { "type": "Point", "coordinates": [ -76.875331, -12.243549 ] } },
{ "type": "Feature", "properties": { "entity_id": "progresol_70_10427730315", "entity_type": "progresol", "TIPO DE PDV": "PS 2.0", "NOMBRE COMERCIAL": "FERRETERIA KIKE LESCANO", "RUC": "10427730315", "RAZÓN SOCIAL": "MUÑOZ NAVARRO NANCY", "ZONA": "LIMA SUR", "SUB ZONA": "LIMA SUR", "sububigeo": "15012301", "UBIGEO": "150123", "DISTRITO": "PACHACAMAC", "PROVINCIA": "LIMA", "DEPARTAMEN": "LIMA", "Zonas": "Pachacamac histórico", "tipo_influencia": "Directa", "abreviatura": "PACH", "min_distance_m": 1692.7016221849087 }, "geometry": { "type": "Point", "coordinates": [ -76.8615958, -12.2269635 ] } },
{ "type": "Feature", "properties": { "entity_id": "progresol_71_20609364638", "entity_type": "progresol", "TIPO DE PDV": "PS 2.0", "NOMBRE COMERCIAL": "FERRETERIA KRJ", "RUC": "20609364638", "RAZÓN SOCIAL": "SERVICIOS GENERALES TRIGAL J&A SAC", "ZONA": "LIMA SUR", "SUB ZONA": "LIMA SUR", "sububigeo": "15011900", "UBIGEO": "150119", "DISTRITO": "LURIN", "PROVINCIA": "LIMA", "DEPARTAMEN": "LIMA", "Zonas": "Todas Zonas", "tipo_influencia": "Directa", "abreviatura": "LUR", "min_distance_m": 1785.4168594879018 }, "geometry": { "type": "Point", "coordinates": [ -76.879141, -12.26655 ] } },
{ "type": "Feature", "properties": { "entity_id": "progresol_72_20613800035", "entity_type": "progresol", "TIPO DE PDV": "PS 2.0", "NOMBRE COMERCIAL": "FERRETERIA LA ENCANTADA", "RUC": "20613800035", "RAZÓN SOCIAL": "GRUPO COMERCIAL TUMI S.A.C", "ZONA": "LIMA SUR", "SUB ZONA": "LIMA SUR", "sububigeo": "15011900", "UBIGEO": "150119", "DISTRITO": "LURIN", "PROVINCIA": "LIMA", "DEPARTAMEN": "LIMA", "Zonas": "Todas Zonas", "tipo_influencia": "Directa", "abreviatura": "LUR", "min_distance_m": null }, "geometry": { "type": "Point", "coordinates": [ -76.841955, -12.268368333333296 ] } },
{ "type": "Feature", "properties": { "entity_id": "progresol_73_10083621902", "entity_type": "progresol", "TIPO DE PDV": "PS 2.0", "NOMBRE COMERCIAL": "FERRETERIA LA SOLUCION 3", "RUC": "10083621902", "RAZÓN SOCIAL": "TORRES CASTILLO EMILIO", "ZONA": "LIMA SUR", "SUB ZONA": "LIMA SUR", "sububigeo": "15013300", "UBIGEO": "150133", "DISTRITO": "SAN JUAN DE MIRAFLORES", "PROVINCIA": "LIMA", "DEPARTAMEN": "LIMA", "Zonas": "Todas Zonas", "tipo_influencia": "Indirecta", "abreviatura": "SJM", "min_distance_m": null }, "geometry": { "type": "Point", "coordinates": [ -76.981174, -12.166234 ] } },
{ "type": "Feature", "properties": { "entity_id": "progresol_74_10078540226", "entity_type": "progresol", "TIPO DE PDV": "PS 2.0", "NOMBRE COMERCIAL": "FERRETERIA LESCANO", "RUC": "10078540226", "RAZÓN SOCIAL": "LESCANO CABRERA CARLOS ALBERTO", "ZONA": "LIMA SUR", "SUB ZONA": "LIMA SUR", "sububigeo": "15012301", "UBIGEO": "150123", "DISTRITO": "PACHACAMAC", "PROVINCIA": "LIMA", "DEPARTAMEN": "LIMA", "Zonas": "Pachacamac histórico", "tipo_influencia": "Directa", "abreviatura": "PACH", "min_distance_m": 1832.5369126417256 }, "geometry": { "type": "Point", "coordinates": [ -76.86003876, -12.22683239 ] } },
{ "type": "Feature", "properties": { "entity_id": "progresol_75_20611397004", "entity_type": "progresol", "TIPO DE PDV": "PS 2.0", "NOMBRE COMERCIAL": "FERRETERIA LUCILA", "RUC": "20611397004", "RAZÓN SOCIAL": "MEZA SOCA ROSARIO MYRIAN", "ZONA": "LIMA SUR", "SUB ZONA": "LIMA SUR", "sububigeo": "15011900", "UBIGEO": "150119", "DISTRITO": "LURIN", "PROVINCIA": "LIMA", "DEPARTAMEN": "LIMA", "Zonas": "Todas Zonas", "tipo_influencia": "Directa", "abreviatura": "LUR", "min_distance_m": 1305.2751337327084 }, "geometry": { "type": "Point", "coordinates": [ -76.897511, -12.233682 ] } },
{ "type": "Feature", "properties": { "entity_id": "progresol_76_20538672433", "entity_type": "progresol", "TIPO DE PDV": "PS 2.0", "NOMBRE COMERCIAL": "FERRETERIA MENDOZA", "RUC": "20538672433", "RAZÓN SOCIAL": "FETRANSER E.I.R.L.", "ZONA": "LIMA SUR", "SUB ZONA": "LIMA SUR", "sububigeo": "15013300", "UBIGEO": "150133", "DISTRITO": "SAN JUAN DE MIRAFLORES", "PROVINCIA": "LIMA", "DEPARTAMEN": "LIMA", "Zonas": "Todas Zonas", "tipo_influencia": "Indirecta", "abreviatura": "SJM", "min_distance_m": null }, "geometry": { "type": "Point", "coordinates": [ -76.9773458, -12.1785603 ] } },
{ "type": "Feature", "properties": { "entity_id": "progresol_77_20609134772", "entity_type": "progresol", "TIPO DE PDV": "PS 2.0", "NOMBRE COMERCIAL": "FERRETERIA MENDOZA 2", "RUC": "20609134772", "RAZÓN SOCIAL": "MENDOZA BULEJE ROBERTO", "ZONA": "LIMA SUR", "SUB ZONA": "LIMA SUR", "sububigeo": "15012301", "UBIGEO": "150123", "DISTRITO": "PACHACAMAC", "PROVINCIA": "LIMA", "DEPARTAMEN": "LIMA", "Zonas": "Pachacamac histórico", "tipo_influencia": "Directa", "abreviatura": "PACH", "min_distance_m": 1479.1190089771505 }, "geometry": { "type": "Point", "coordinates": [ -76.8622774, -12.224017899999989 ] } },
{ "type": "Feature", "properties": { "entity_id": "progresol_78_20514807915", "entity_type": "progresol", "TIPO DE PDV": "PS 2.0", "NOMBRE COMERCIAL": "FERRETERIA ODE SEÑOR DE HUANCA", "RUC": "20514807915", "RAZÓN SOCIAL": "CONSTRUC - SERV. RIMACHI S.A.C", "ZONA": "LIMA SUR", "SUB ZONA": "LIMA SUR", "sububigeo": "15013300", "UBIGEO": "150133", "DISTRITO": "SAN JUAN DE MIRAFLORES", "PROVINCIA": "LIMA", "DEPARTAMEN": "LIMA", "Zonas": "Todas Zonas", "tipo_influencia": "Indirecta", "abreviatura": "SJM", "min_distance_m": null }, "geometry": { "type": "Point", "coordinates": [ -76.975612, -12.187822 ] } },
{ "type": "Feature", "properties": { "entity_id": "progresol_79_10104995387", "entity_type": "progresol", "TIPO DE PDV": "PS 2.0", "NOMBRE COMERCIAL": "FERRETERIA ROXANITA", "RUC": "10104995387", "RAZÓN SOCIAL": "OBISPO MENDOZA JUAN SEBASTIAN", "ZONA": "LIMA SUR", "SUB ZONA": "LIMA SUR", "sububigeo": "15011900", "UBIGEO": "150119", "DISTRITO": "LURIN", "PROVINCIA": "LIMA", "DEPARTAMEN": "LIMA", "Zonas": "Todas Zonas", "tipo_influencia": "Directa", "abreviatura": "LUR", "min_distance_m": null }, "geometry": { "type": "Point", "coordinates": [ -76.84114075, -12.22143173 ] } },
{ "type": "Feature", "properties": { "entity_id": "progresol_80_10091542809", "entity_type": "progresol", "TIPO DE PDV": "PS 2.0", "NOMBRE COMERCIAL": "FERRETERIA SALCEDO", "RUC": "10091542809", "RAZÓN SOCIAL": "SALCEDO PACHECO LEONIDAS", "ZONA": "LIMA SUR", "SUB ZONA": "LIMA SUR", "sububigeo": "15013300", "UBIGEO": "150133", "DISTRITO": "SAN JUAN DE MIRAFLORES", "PROVINCIA": "LIMA", "DEPARTAMEN": "LIMA", "Zonas": "Todas Zonas", "tipo_influencia": "Indirecta", "abreviatura": "SJM", "min_distance_m": null }, "geometry": { "type": "Point", "coordinates": [ -76.9756738, -12.1910883 ] } },
{ "type": "Feature", "properties": { "entity_id": "progresol_81_20609932261", "entity_type": "progresol", "TIPO DE PDV": "PS 2.0", "NOMBRE COMERCIAL": "FERRETERIA SERGIO LESCANO", "RUC": "20609932261", "RAZÓN SOCIAL": "INVERSIONES Y DISTRIBUCIONES AGPERU E.I.R.L", "ZONA": "LIMA SUR", "SUB ZONA": "LIMA SUR", "sububigeo": "15011900", "UBIGEO": "150119", "DISTRITO": "LURIN", "PROVINCIA": "LIMA", "DEPARTAMEN": "LIMA", "Zonas": "Todas Zonas", "tipo_influencia": "Directa", "abreviatura": "LUR", "min_distance_m": null }, "geometry": { "type": "Point", "coordinates": [ -76.843803, -12.223279 ] } },
{ "type": "Feature", "properties": { "entity_id": "progresol_82_10211301606", "entity_type": "progresol", "TIPO DE PDV": "PS 2.0", "NOMBRE COMERCIAL": "FERRETERIA VIRGEN DEL CARMEN", "RUC": "10211301606", "RAZÓN SOCIAL": "INVERSIONES TICSE ESMARBRIAN", "ZONA": "LIMA SUR", "SUB ZONA": "LIMA SUR", "sububigeo": "15013300", "UBIGEO": "150133", "DISTRITO": "SAN JUAN DE MIRAFLORES", "PROVINCIA": "LIMA", "DEPARTAMEN": "LIMA", "Zonas": "Todas Zonas", "tipo_influencia": "Indirecta", "abreviatura": "SJM", "min_distance_m": null }, "geometry": { "type": "Point", "coordinates": [ -76.97341221, -12.19012296 ] } },
{ "type": "Feature", "properties": { "entity_id": "progresol_83_10481668242", "entity_type": "progresol", "TIPO DE PDV": "PS 2.0", "NOMBRE COMERCIAL": "FERRETERIA BRENDA", "RUC": "10481668242", "RAZÓN SOCIAL": " LATORRE FERNANDEZ YOISER TRIUNFEL", "ZONA": "LIMA SUR", "SUB ZONA": "LIMA SUR", "sububigeo": "15013300", "UBIGEO": "150133", "DISTRITO": "SAN JUAN DE MIRAFLORES", "PROVINCIA": "LIMA", "DEPARTAMEN": "LIMA", "Zonas": "Todas Zonas", "tipo_influencia": "Indirecta", "abreviatura": "SJM", "min_distance_m": null }, "geometry": { "type": "Point", "coordinates": [ -76.9575311, -12.1341247 ] } },
{ "type": "Feature", "properties": { "entity_id": "progresol_84_10311665737", "entity_type": "progresol", "TIPO DE PDV": "PS1.0", "NOMBRE COMERCIAL": "CASAVERDE ANCCO LUCIA", "RUC": "10311665737", "RAZÓN SOCIAL": "CASAVERDE ANCCO LUCIA", "ZONA": "LIMA CENTRO", "SUB ZONA": "LIMA CENTRO", "sububigeo": "15012304", "UBIGEO": "150123", "DISTRITO": "PACHACAMAC", "PROVINCIA": "LIMA", "DEPARTAMEN": "LIMA", "Zonas": "Quebrada de Manchay", "tipo_influencia": "Directa", "abreviatura": "PACH", "min_distance_m": null }, "geometry": { "type": "Point", "coordinates": [ -76.8770903, -12.1004893 ] } },
{ "type": "Feature", "properties": { "entity_id": "progresol_85_20543233367", "entity_type": "progresol", "TIPO DE PDV": "PS1.0", "NOMBRE COMERCIAL": "CONSORCIO SAN JOSE S.A.C.", "RUC": "20543233367", "RAZÓN SOCIAL": "OPERADOR LOGISTICO JOTA & BE S.A.C.", "ZONA": "LIMA CENTRO", "SUB ZONA": "LIMA CENTRO", "sububigeo": "15012304", "UBIGEO": "150123", "DISTRITO": "PACHACAMAC", "PROVINCIA": "LIMA", "DEPARTAMEN": "LIMA", "Zonas": "Quebrada de Manchay", "tipo_influencia": "Directa", "abreviatura": "PACH", "min_distance_m": null }, "geometry": { "type": "Point", "coordinates": [ -76.879033, -12.08419 ] } },
{ "type": "Feature", "properties": { "entity_id": "progresol_86_10107024684", "entity_type": "progresol", "TIPO DE PDV": "PS1.0", "NOMBRE COMERCIAL": "ISMAEL LEONARDO PALOMARES QUISPE", "RUC": "10107024684", "RAZÓN SOCIAL": "ISMAEL LEONARDO PALOMARES QUISPE", "ZONA": "LIMA CENTRO", "SUB ZONA": "LIMA CENTRO", "sububigeo": "15012304", "UBIGEO": "150123", "DISTRITO": "PACHACAMAC", "PROVINCIA": "LIMA", "DEPARTAMEN": "LIMA", "Zonas": "Quebrada de Manchay", "tipo_influencia": "Directa", "abreviatura": "PACH", "min_distance_m": null }, "geometry": { "type": "Point", "coordinates": [ -76.8719179, -12.1252957 ] } },
{ "type": "Feature", "properties": { "entity_id": "progresol_87_10072782793", "entity_type": "progresol", "TIPO DE PDV": "PS1.0", "NOMBRE COMERCIAL": "BELLIDO DIPAZ MARCELINO", "RUC": "10072782793", "RAZÓN SOCIAL": "BELLIDO DIPAZ MARCELINO", "ZONA": "LIMA CENTRO", "SUB ZONA": "LIMA CENTRO", "sububigeo": "15012304", "UBIGEO": "150123", "DISTRITO": "PACHACAMAC", "PROVINCIA": "LIMA", "DEPARTAMEN": "LIMA", "Zonas": "Quebrada de Manchay", "tipo_influencia": "Directa", "abreviatura": "PACH", "min_distance_m": null }, "geometry": { "type": "Point", "coordinates": [ -76.8793769, -12.0842025 ] } },
{ "type": "Feature", "properties": { "entity_id": "progresol_88_10104933055", "entity_type": "progresol", "TIPO DE PDV": "PS1.0", "NOMBRE COMERCIAL": "BULEJE NAQUIRIMA ALEJANDRO", "RUC": "10104933055", "RAZÓN SOCIAL": "BULEJE NAQUIRIMA ALEJANDRO", "ZONA": "LIMA CENTRO", "SUB ZONA": "LIMA CENTRO", "sububigeo": "15012304", "UBIGEO": "150123", "DISTRITO": "PACHACAMAC", "PROVINCIA": "LIMA", "DEPARTAMEN": "LIMA", "Zonas": "Quebrada de Manchay", "tipo_influencia": "Directa", "abreviatura": "PACH", "min_distance_m": null }, "geometry": { "type": "Point", "coordinates": [ -76.8833478, -12.0850807 ] } },
{ "type": "Feature", "properties": { "entity_id": "progresol_89_20550701562", "entity_type": "progresol", "TIPO DE PDV": "PS1.0", "NOMBRE COMERCIAL": "CEMFISA E.I.R.L.", "RUC": "20550701562", "RAZÓN SOCIAL": "CEMFISA E.I.R.L.", "ZONA": "LIMA CENTRO", "SUB ZONA": "LIMA CENTRO", "sububigeo": "15012304", "UBIGEO": "150123", "DISTRITO": "PACHACAMAC", "PROVINCIA": "LIMA", "DEPARTAMEN": "LIMA", "Zonas": "Quebrada de Manchay", "tipo_influencia": "Directa", "abreviatura": "PACH", "min_distance_m": null }, "geometry": { "type": "Point", "coordinates": [ -76.885881, -12.0853561 ] } },
{ "type": "Feature", "properties": { "entity_id": "progresol_90_20543233367", "entity_type": "progresol", "TIPO DE PDV": "PS1.0", "NOMBRE COMERCIAL": "CONSORCIO SAN JOSE S.A.C.", "RUC": "20543233367", "RAZÓN SOCIAL": "OPERADOR LOGISTICO JOTA & BE S.A.C.", "ZONA": "LIMA CENTRO", "SUB ZONA": "LIMA CENTRO", "sububigeo": "15012304", "UBIGEO": "150123", "DISTRITO": "PACHACAMAC", "PROVINCIA": "LIMA", "DEPARTAMEN": "LIMA", "Zonas": "Quebrada de Manchay", "tipo_influencia": "Directa", "abreviatura": "PACH", "min_distance_m": null }, "geometry": { "type": "Point", "coordinates": [ -76.87903, -12.084194 ] } },
{ "type": "Feature", "properties": { "entity_id": "progresol_91_20516287641", "entity_type": "progresol", "TIPO DE PDV": "PS1.0", "NOMBRE COMERCIAL": "FERRETERIA MAURO", "RUC": "20516287641", "RAZÓN SOCIAL": "FERREMAURO Y HNOS SOCIEDAD COMERCIAL DE RESPONSABILIDAD LIMITADA - FERREMAURO Y HNOS SRL", "ZONA": "LIMA SUR", "SUB ZONA": "LIMA SUR", "sububigeo": "15013300", "UBIGEO": "150133", "DISTRITO": "SAN JUAN DE MIRAFLORES", "PROVINCIA": "LIMA", "DEPARTAMEN": "LIMA", "Zonas": "Todas Zonas", "tipo_influencia": "Indirecta", "abreviatura": "SJM", "min_distance_m": null }, "geometry": { "type": "Point", "coordinates": [ -76.96610775, -12.13644361 ] } },
{ "type": "Feature", "properties": { "entity_id": "progresol_92_10092586818", "entity_type": "progresol", "TIPO DE PDV": "PS1.0", "NOMBRE COMERCIAL": "FERRETERIA Y MATERIALES DE CONSTRUCCION LAS HERMANITAS E.I.R.L.", "RUC": "10092586818", "RAZÓN SOCIAL": "FERRETERIA Y MATERIALES DE CONSTRUCCION LAS HERMANITAS E.I.R.L.", "ZONA": "LIMA SUR", "SUB ZONA": "LIMA SUR", "sububigeo": "15013300", "UBIGEO": "150133", "DISTRITO": "SAN JUAN DE MIRAFLORES", "PROVINCIA": "LIMA", "DEPARTAMEN": "LIMA", "Zonas": "Todas Zonas", "tipo_influencia": "Indirecta", "abreviatura": "SJM", "min_distance_m": null }, "geometry": { "type": "Point", "coordinates": [ -76.95408459, -12.13073251 ] } },
{ "type": "Feature", "properties": { "entity_id": "progresol_93_10075171868", "entity_type": "progresol", "TIPO DE PDV": "PS1.0", "NOMBRE COMERCIAL": "CASAS QUISPE PEDRO JESUS", "RUC": "10075171868", "RAZÓN SOCIAL": "CASAS QUISPE PEDRO JESUS", "ZONA": "LIMA SUR", "SUB ZONA": "LIMA SUR", "sububigeo": "15013300", "UBIGEO": "150133", "DISTRITO": "SAN JUAN DE MIRAFLORES", "PROVINCIA": "LIMA", "DEPARTAMEN": "LIMA", "Zonas": "Todas Zonas", "tipo_influencia": "Indirecta", "abreviatura": "SJM", "min_distance_m": null }, "geometry": { "type": "Point", "coordinates": [ -76.9719546, -12.144835 ] } },
{ "type": "Feature", "properties": { "entity_id": "progresol_94_20510661380", "entity_type": "progresol", "TIPO DE PDV": "PS1.0", "NOMBRE COMERCIAL": "DEPOSITO Y CONSTRUCCIONES SANTA MARIA S.C.R.L.", "RUC": "20510661380", "RAZÓN SOCIAL": "DEPOSITO Y CONSTRUCCIONES SANTA MARIA S.C.R.L.", "ZONA": "LIMA SUR", "SUB ZONA": "LIMA SUR", "sububigeo": "15013300", "UBIGEO": "150133", "DISTRITO": "SAN JUAN DE MIRAFLORES", "PROVINCIA": "LIMA", "DEPARTAMEN": "LIMA", "Zonas": "Todas Zonas", "tipo_influencia": "Indirecta", "abreviatura": "SJM", "min_distance_m": null }, "geometry": { "type": "Point", "coordinates": [ -76.959858, -12.162035 ] } },
{ "type": "Feature", "properties": { "entity_id": "progresol_95_20520758829", "entity_type": "progresol", "TIPO DE PDV": "PS1.0", "NOMBRE COMERCIAL": "INVERSIONES PRADA S.A.C.", "RUC": "20520758829", "RAZÓN SOCIAL": "INVERSIONES PRADA S.A.C.", "ZONA": "LIMA SUR", "SUB ZONA": "LIMA SUR", "sububigeo": "15013300", "UBIGEO": "150133", "DISTRITO": "SAN JUAN DE MIRAFLORES", "PROVINCIA": "LIMA", "DEPARTAMEN": "LIMA", "Zonas": "Todas Zonas", "tipo_influencia": "Indirecta", "abreviatura": "SJM", "min_distance_m": null }, "geometry": { "type": "Point", "coordinates": [ -76.958303, -12.188425 ] } },
{ "type": "Feature", "properties": { "entity_id": "progresol_96_10091325816", "entity_type": "progresol", "TIPO DE PDV": "PS1.0", "NOMBRE COMERCIAL": "RODRIGUEZ ARENAS WILFREDO EULOGIO", "RUC": "10091325816", "RAZÓN SOCIAL": "RODRIGUEZ ARENAS WILFREDO EULOGIO", "ZONA": "LIMA SUR", "SUB ZONA": "LIMA SUR", "sububigeo": "15013300", "UBIGEO": "150133", "DISTRITO": "SAN JUAN DE MIRAFLORES", "PROVINCIA": "LIMA", "DEPARTAMEN": "LIMA", "Zonas": "Todas Zonas", "tipo_influencia": "Indirecta", "abreviatura": "SJM", "min_distance_m": null }, "geometry": { "type": "Point", "coordinates": [ -76.971392, -12.14551 ] } },
{ "type": "Feature", "properties": { "entity_id": "progresol_97_20552807970", "entity_type": "progresol", "TIPO DE PDV": "PS1.0", "NOMBRE COMERCIAL": "MATERIALES DE CONSTRUCCION LOS PORTALES S.A.C.", "RUC": "20552807970", "RAZÓN SOCIAL": "MATERIALES DE CONSTRUCCION LOS PORTALES S.A.C.", "ZONA": "LIMA SUR", "SUB ZONA": "LIMA SUR", "sububigeo": "15014200", "UBIGEO": "150142", "DISTRITO": "VILLA EL SALVADOR", "PROVINCIA": "LIMA", "DEPARTAMEN": "LIMA", "Zonas": "Todas Zonas", "tipo_influencia": "Directa", "abreviatura": "VES", "min_distance_m": null }, "geometry": { "type": "Point", "coordinates": [ -76.921713, -12.2303278 ] } },
{ "type": "Feature", "properties": { "entity_id": "progresol_98_20521269325", "entity_type": "progresol", "TIPO DE PDV": "PS1.0", "NOMBRE COMERCIAL": "FERRETERIA SARITA", "RUC": "20521269325", "RAZÓN SOCIAL": "CONSORCIO & ASOCIADOS SARITA S.A.C.", "ZONA": "LIMA SUR", "SUB ZONA": "LIMA SUR", "sububigeo": "15014303", "UBIGEO": "150143", "DISTRITO": "VILLA MARIA DEL TRIUNFO", "PROVINCIA": "LIMA", "DEPARTAMEN": "LIMA", "Zonas": "Jose Carlos Mariategui", "tipo_influencia": "Directa", "abreviatura": "VMT", "min_distance_m": null }, "geometry": { "type": "Point", "coordinates": [ -76.948315, -12.140401 ] } },
{ "type": "Feature", "properties": { "entity_id": "progresol_99_10091153136", "entity_type": "progresol", "TIPO DE PDV": "PS1.0", "NOMBRE COMERCIAL": "ZAPATA ARAPA EUSEBIO", "RUC": "10091153136", "RAZÓN SOCIAL": "ZAPATA ARAPA EUSEBIO", "ZONA": "LIMA SUR", "SUB ZONA": "LIMA SUR", "sububigeo": "15014200", "UBIGEO": "150142", "DISTRITO": "VILLA EL SALVADOR", "PROVINCIA": "LIMA", "DEPARTAMEN": "LIMA", "Zonas": "Todas Zonas", "tipo_influencia": "Directa", "abreviatura": "VES", "min_distance_m": null }, "geometry": { "type": "Point", "coordinates": [ -76.9406333, -12.1884695 ] } },
{ "type": "Feature", "properties": { "entity_id": "progresol_100_20500864703", "entity_type": "progresol", "TIPO DE PDV": "PS1.0", "NOMBRE COMERCIAL": "DEPOSITOS Y FERRETERIA NICHAR S.A.C.", "RUC": "20500864703", "RAZÓN SOCIAL": "DEPOSITOS Y FERRETERIA NICHAR S.A.C.", "ZONA": "LIMA SUR", "SUB ZONA": "LIMA SUR", "sububigeo": "15014306", "UBIGEO": "150143", "DISTRITO": "VILLA MARIA DEL TRIUNFO", "PROVINCIA": "LIMA", "DEPARTAMEN": "LIMA", "Zonas": "San Francisco de la Tablada de Lurin", "tipo_influencia": "Directa", "abreviatura": "VMT", "min_distance_m": null }, "geometry": { "type": "Point", "coordinates": [ -76.9306761, -12.190636 ] } },
{ "type": "Feature", "properties": { "entity_id": "progresol_101_10104409593", "entity_type": "progresol", "TIPO DE PDV": "PS1.0", "NOMBRE COMERCIAL": "DISTRIBUIDORA LE & NS E.I.R.L.", "RUC": "10104409593", "RAZÓN SOCIAL": "DISTRIBUIDORA LE & NS E.I.R.L.", "ZONA": "LIMA SUR", "SUB ZONA": "LIMA SUR", "sububigeo": "15014200", "UBIGEO": "150142", "DISTRITO": "VILLA EL SALVADOR", "PROVINCIA": "LIMA", "DEPARTAMEN": "LIMA", "Zonas": "Todas Zonas", "tipo_influencia": "Directa", "abreviatura": "VES", "min_distance_m": null }, "geometry": { "type": "Point", "coordinates": [ -76.9463335, -12.2263228 ] } },
{ "type": "Feature", "properties": { "entity_id": "progresol_102_20384346759", "entity_type": "progresol", "TIPO DE PDV": "PS1.0", "NOMBRE COMERCIAL": "MATERIALES DE CONSTRUCCION MAEL S.A.C.", "RUC": "20384346759", "RAZÓN SOCIAL": "MATERIALES DE CONSTRUCCION MAEL S.A.C.", "ZONA": "LIMA SUR", "SUB ZONA": "LIMA SUR", "sububigeo": "15014200", "UBIGEO": "150142", "DISTRITO": "VILLA EL SALVADOR", "PROVINCIA": "LIMA", "DEPARTAMEN": "LIMA", "Zonas": "Todas Zonas", "tipo_influencia": "Directa", "abreviatura": "VES", "min_distance_m": null }, "geometry": { "type": "Point", "coordinates": [ -76.931569, -12.227296 ] } },
{ "type": "Feature", "properties": { "entity_id": "progresol_103_10089178580", "entity_type": "progresol", "TIPO DE PDV": "PS1.0", "NOMBRE COMERCIAL": "POLO RODRIGUEZ DIONICIO", "RUC": "10089178580", "RAZÓN SOCIAL": "POLO RODRIGUEZ DIONICIO", "ZONA": "LIMA SUR", "SUB ZONA": "LIMA SUR", "sububigeo": "15014200", "UBIGEO": "150142", "DISTRITO": "VILLA EL SALVADOR", "PROVINCIA": "LIMA", "DEPARTAMEN": "LIMA", "Zonas": "Todas Zonas", "tipo_influencia": "Directa", "abreviatura": "VES", "min_distance_m": null }, "geometry": { "type": "Point", "coordinates": [ -76.9507997, -12.2204241 ] } },
{ "type": "Feature", "properties": { "entity_id": "progresol_104_20601509165", "entity_type": "progresol", "TIPO DE PDV": "PS1.0", "NOMBRE COMERCIAL": "COORPORACION JOSE GIL", "RUC": "20601509165", "RAZÓN SOCIAL": "COORPORACION JOSE GIL", "ZONA": "LIMA SUR", "SUB ZONA": "LIMA SUR", "sububigeo": "15014307", "UBIGEO": "150143", "DISTRITO": "VILLA MARIA DEL TRIUNFO", "PROVINCIA": "LIMA", "DEPARTAMEN": "LIMA", "Zonas": "Villa Poeta José Gálvez", "tipo_influencia": "Directa", "abreviatura": "VMT", "min_distance_m": null }, "geometry": { "type": "Point", "coordinates": [ -76.908667, -12.226183 ] } },
{ "type": "Feature", "properties": { "entity_id": "progresol_105_20332475755", "entity_type": "progresol", "TIPO DE PDV": "PS1.0", "NOMBRE COMERCIAL": "DISTRIBUIDORA FERRETERA NASCA S.A.C", "RUC": "20332475755", "RAZÓN SOCIAL": "DISTRIBUIDORA FERRETERA NASCA S.A.C", "ZONA": "LIMA SUR", "SUB ZONA": "LIMA SUR", "sububigeo": "15014307", "UBIGEO": "150143", "DISTRITO": "VILLA MARIA DEL TRIUNFO", "PROVINCIA": "LIMA", "DEPARTAMEN": "LIMA", "Zonas": "Villa Poeta José Gálvez", "tipo_influencia": "Directa", "abreviatura": "VMT", "min_distance_m": null }, "geometry": { "type": "Point", "coordinates": [ -76.9087046, -12.22569939 ] } },
{ "type": "Feature", "properties": { "entity_id": "progresol_106_20513753196", "entity_type": "progresol", "TIPO DE PDV": "PS1.0", "NOMBRE COMERCIAL": "FERRETERIA JANET E.I.R.L.", "RUC": "20513753196", "RAZÓN SOCIAL": "FERRETERIA JANET E.I.R.L.", "ZONA": "LIMA SUR", "SUB ZONA": "LIMA SUR", "sububigeo": "15014304", "UBIGEO": "150143", "DISTRITO": "VILLA MARIA DEL TRIUNFO", "PROVINCIA": "LIMA", "DEPARTAMEN": "LIMA", "Zonas": "Nueva Esperanza", "tipo_influencia": "Directa", "abreviatura": "VMT", "min_distance_m": null }, "geometry": { "type": "Point", "coordinates": [ -76.918676, -12.168738 ] } },
{ "type": "Feature", "properties": { "entity_id": "progresol_107_10089985493", "entity_type": "progresol", "TIPO DE PDV": "PS1.0", "NOMBRE COMERCIAL": "VILCA CANAZA JOSE MIGUEL", "RUC": "10089985493", "RAZÓN SOCIAL": "VILCA CANAZA JOSE MIGUEL", "ZONA": "LIMA SUR", "SUB ZONA": "LIMA SUR", "sububigeo": "15014301", "UBIGEO": "150143", "DISTRITO": "VILLA MARIA DEL TRIUNFO", "PROVINCIA": "LIMA", "DEPARTAMEN": "LIMA", "Zonas": "Inca Pachacutec", "tipo_influencia": "Directa", "abreviatura": "VMT", "min_distance_m": null }, "geometry": { "type": "Point", "coordinates": [ -76.944338, -12.18016 ] } },
{ "type": "Feature", "properties": { "entity_id": "progresol_108_20537477793", "entity_type": "progresol", "TIPO DE PDV": "PS1.0", "NOMBRE COMERCIAL": "DISCASA E.I.R.L.", "RUC": "20537477793", "RAZÓN SOCIAL": "DISCASA E.I.R.L.", "ZONA": "LIMA SUR", "SUB ZONA": "LIMA SUR", "sububigeo": "15011900", "UBIGEO": "150119", "DISTRITO": "LURIN", "PROVINCIA": "LIMA", "DEPARTAMEN": "LIMA", "Zonas": "Todas Zonas", "tipo_influencia": "Directa", "abreviatura": "LUR", "min_distance_m": null }, "geometry": { "type": "Point", "coordinates": [ -76.8643862, -12.283131 ] } },
{ "type": "Feature", "properties": { "entity_id": "progresol_109_20429982902", "entity_type": "progresol", "TIPO DE PDV": "PS1.0", "NOMBRE COMERCIAL": "INVERSIONES CONSUELO EIRL", "RUC": "20429982902", "RAZÓN SOCIAL": "COMERCIAL FERRETERA 40 S.A.C.", "ZONA": "LIMA SUR", "SUB ZONA": "LIMA SUR", "sububigeo": "15011900", "UBIGEO": "150119", "DISTRITO": "LURIN", "PROVINCIA": "LIMA", "DEPARTAMEN": "LIMA", "Zonas": "Todas Zonas", "tipo_influencia": "Directa", "abreviatura": "LUR", "min_distance_m": null }, "geometry": { "type": "Point", "coordinates": [ -76.8521547, -12.2947726 ] } },
{ "type": "Feature", "properties": { "entity_id": "progresol_110_20261374898", "entity_type": "progresol", "TIPO DE PDV": "PS1.0", "NOMBRE COMERCIAL": "INDUSFER EIRL", "RUC": "20261374898", "RAZÓN SOCIAL": "INDUSFER EIRL", "ZONA": "LIMA SUR", "SUB ZONA": "LIMA SUR", "sububigeo": "15011900", "UBIGEO": "150119", "DISTRITO": "LURIN", "PROVINCIA": "LIMA", "DEPARTAMEN": "LIMA", "Zonas": "Todas Zonas", "tipo_influencia": "Directa", "abreviatura": "LUR", "min_distance_m": null }, "geometry": { "type": "Point", "coordinates": [ -76.85770416, -12.2899456 ] } },
{ "type": "Feature", "properties": { "entity_id": "progresol_111_20504415989", "entity_type": "progresol", "TIPO DE PDV": "PS1.0", "NOMBRE COMERCIAL": "DISTRIBUIDORA FERRETERA SAN CAYETANO E.I.R.L.", "RUC": "20504415989", "RAZÓN SOCIAL": "DISTRIBUIDORA FERRETERA SAN CAYETANO E.I.R.L.", "ZONA": "LIMA SUR", "SUB ZONA": "LIMA SUR", "sububigeo": "15011900", "UBIGEO": "150119", "DISTRITO": "LURIN", "PROVINCIA": "LIMA", "DEPARTAMEN": "LIMA", "Zonas": "Todas Zonas", "tipo_influencia": "Directa", "abreviatura": "LUR", "min_distance_m": 1203.4700710721438 }, "geometry": { "type": "Point", "coordinates": [ -76.8819138, -12.2561472 ] } },
{ "type": "Feature", "properties": { "entity_id": "progresol_112_10420692752", "entity_type": "progresol", "TIPO DE PDV": "PS1.0", "NOMBRE COMERCIAL": "BORJA VILCHEZ PEDRO EMANUEL", "RUC": "10420692752", "RAZÓN SOCIAL": "BORJA VILCHEZ PEDRO EMANUEL", "ZONA": "LIMA SUR", "SUB ZONA": "LIMA SUR", "sububigeo": "15012301", "UBIGEO": "150123", "DISTRITO": "PACHACAMAC", "PROVINCIA": "LIMA", "DEPARTAMEN": "LIMA", "Zonas": "Pachacamac histórico", "tipo_influencia": "Directa", "abreviatura": "PACH", "min_distance_m": 1851.1244049022989 }, "geometry": { "type": "Point", "coordinates": [ -76.8597172, -12.2265904 ] } }
]
}
