{
"type": "FeatureCollection",
"name": "puentes",
"crs": { "type": "name", "properties": { "name": "urn:ogc:def:crs:OGC:1.3:CRS84" } },
"features": [
{ "type": "Feature", "properties": { "entity_id": "1317", "entity_type": "puentes", "v_nom_infr": "PE-22B, KM 23+900", "v_tip_infr": "Puente", "v_cod_ruta": "PE-22B", "estado": "EXISTENTES", "evento": null, "fuente_des": "Inventario vial básico 2010, actualizado con las intervenciones a cargo de PROVIAS Nacional - marzo 22", "sububigeo": "12070100", "UBIGEO": "120701", "DISTRITO": "TARMA", "PROVINCIA": "TARMA", "DEPARTAMEN": "JUNIN", "Zonas": "Todas Zonas", "tipo_influencia": "Indirecta", "abreviatura": "TAR", "min_distance_m": 1528.6386961405406, "susc_inund_niv": "Muy alto", "susc_mmasa_niv": "Alto", "susc_niv": "Muy alto", "canalC_niv": "Medio", "exposicion_niv": "Muy alto" }, "geometry": { "type": "Point", "coordinates": [ -75.7571, -11.431761 ] } },
{ "type": "Feature", "properties": { "entity_id": "1319", "entity_type": "puentes", "v_nom_infr": "PE-22B, KM 28+800", "v_tip_infr": "Puente", "v_cod_ruta": "PE-22B", "estado": "EXISTENTES", "evento": null, "fuente_des": "Inventario vial básico 2010, actualizado con las intervenciones a cargo de PROVIAS Nacional - marzo 22", "sububigeo": "12070100", "UBIGEO": "120701", "DISTRITO": "TARMA", "PROVINCIA": "TARMA", "DEPARTAMEN": "JUNIN", "Zonas": "Todas Zonas", "tipo_influencia": "Indirecta", "abreviatura": "TAR", "min_distance_m": 752.24953877468545, "susc_inund_niv": null, "susc_mmasa_niv": "Muy alto", "susc_niv": "Muy alto", "canalC_niv": "Medio", "exposicion_niv": "Muy alto" }, "geometry": { "type": "Point", "coordinates": [ -75.724874, -11.420317 ] } },
{ "type": "Feature", "properties": { "entity_id": "1320", "entity_type": "puentes", "v_nom_infr": "MALECON GALVEZ", "v_tip_infr": "Puente", "v_cod_ruta": "PE-22B", "estado": "EXISTENTES", "evento": null, "fuente_des": "Inventario vial básico 2010, actualizado con las intervenciones a cargo de PROVIAS Nacional - marzo 22", "sububigeo": "12070100", "UBIGEO": "120701", "DISTRITO": "TARMA", "PROVINCIA": "TARMA", "DEPARTAMEN": "JUNIN", "Zonas": "Todas Zonas", "tipo_influencia": "Indirecta", "abreviatura": "TAR", "min_distance_m": 348.44150245804394, "susc_inund_niv": null, "susc_mmasa_niv": "Muy alto", "susc_niv": "Muy alto", "canalC_niv": "Medio", "exposicion_niv": "Muy alto" }, "geometry": { "type": "Point", "coordinates": [ -75.715887, -11.419604 ] } },
{ "type": "Feature", "properties": { "entity_id": "1323", "entity_type": "puentes", "v_nom_infr": "PTE. ACOBAMBA 1", "v_tip_infr": "Puente", "v_cod_ruta": "PE-22B", "estado": "EXISTENTES", "evento": null, "fuente_des": "Inventario vial básico 2010, actualizado con las intervenciones a cargo de PROVIAS Nacional - marzo 22", "sububigeo": "12070200", "UBIGEO": "120702", "DISTRITO": "ACOBAMBA", "PROVINCIA": "TARMA", "DEPARTAMEN": "JUNIN", "Zonas": "Todas Zonas", "tipo_influencia": "Indirecta", "abreviatura": "ACO", "min_distance_m": null, "susc_inund_niv": null, "susc_mmasa_niv": null, "susc_niv": null, "canalC_niv": null, "exposicion_niv": null }, "geometry": { "type": "Point", "coordinates": [ -75.661916, -11.35357 ] } },
{ "type": "Feature", "properties": { "entity_id": "1324", "entity_type": "puentes", "v_nom_infr": "SAN MIGUEL", "v_tip_infr": "Puente", "v_cod_ruta": "PE-22B", "estado": "EXISTENTES", "evento": null, "fuente_des": "Inventario vial básico 2010, actualizado con las intervenciones a cargo de PROVIAS Nacional - marzo 22", "sububigeo": "12070200", "UBIGEO": "120702", "DISTRITO": "ACOBAMBA", "PROVINCIA": "TARMA", "DEPARTAMEN": "JUNIN", "Zonas": "Todas Zonas", "tipo_influencia": "Indirecta", "abreviatura": "ACO", "min_distance_m": null, "susc_inund_niv": null, "susc_mmasa_niv": null, "susc_niv": null, "canalC_niv": null, "exposicion_niv": null }, "geometry": { "type": "Point", "coordinates": [ -75.654932, -11.354165 ] } },
{ "type": "Feature", "properties": { "entity_id": "1325", "entity_type": "puentes", "v_nom_infr": "PTE. MALALMA", "v_tip_infr": "Puente", "v_cod_ruta": "PE-22B", "estado": "EXISTENTES", "evento": null, "fuente_des": "Inventario vial básico 2010, actualizado con las intervenciones a cargo de PROVIAS Nacional - marzo 22", "sububigeo": "12070600", "UBIGEO": "120706", "DISTRITO": "PALCA", "PROVINCIA": "TARMA", "DEPARTAMEN": "JUNIN", "Zonas": "Todas Zonas", "tipo_influencia": "Directa", "abreviatura": "PAL", "min_distance_m": null, "susc_inund_niv": null, "susc_mmasa_niv": null, "susc_niv": null, "canalC_niv": null, "exposicion_niv": null }, "geometry": { "type": "Point", "coordinates": [ -75.518203, -11.237512 ] } },
{ "type": "Feature", "properties": { "entity_id": "1327", "entity_type": "puentes", "v_nom_infr": "PTE. PALCABADO", "v_tip_infr": "Puente", "v_cod_ruta": "PE-22B", "estado": "EXISTENTES", "evento": null, "fuente_des": "Inventario vial básico 2010, actualizado con las intervenciones a cargo de PROVIAS Nacional - marzo 22", "sububigeo": "12070600", "UBIGEO": "120706", "DISTRITO": "PALCA", "PROVINCIA": "TARMA", "DEPARTAMEN": "JUNIN", "Zonas": "Todas Zonas", "tipo_influencia": "Directa", "abreviatura": "PAL", "min_distance_m": 129.167620558908, "susc_inund_niv": null, "susc_mmasa_niv": null, "susc_niv": null, "canalC_niv": "Medio", "exposicion_niv": "Medio" }, "geometry": { "type": "Point", "coordinates": [ -75.563756, -11.343283 ] } },
{ "type": "Feature", "properties": { "entity_id": "1328", "entity_type": "puentes", "v_nom_infr": "PTE. CARPAPATA", "v_tip_infr": "Puente", "v_cod_ruta": "PE-22B", "estado": "EXISTENTES", "evento": null, "fuente_des": "Inventario vial básico 2010, actualizado con las intervenciones a cargo de PROVIAS Nacional - marzo 22", "sububigeo": "12070600", "UBIGEO": "120706", "DISTRITO": "PALCA", "PROVINCIA": "TARMA", "DEPARTAMEN": "JUNIN", "Zonas": "Todas Zonas", "tipo_influencia": "Directa", "abreviatura": "PAL", "min_distance_m": null, "susc_inund_niv": null, "susc_mmasa_niv": null, "susc_niv": null, "canalC_niv": null, "exposicion_niv": null }, "geometry": { "type": "Point", "coordinates": [ -75.550767, -11.262104 ] } },
{ "type": "Feature", "properties": { "entity_id": "1489", "entity_type": "puentes", "v_nom_infr": "PTE. CONCHÁN", "v_tip_infr": "Puente", "v_cod_ruta": "PE-1S", "estado": "EXISTENTES", "evento": null, "fuente_des": "Inventario vial básico 2010, actualizado con las intervenciones a cargo de PROVIAS Nacional - marzo 22", "sububigeo": "15011900", "UBIGEO": "150119", "DISTRITO": "LURIN", "PROVINCIA": "LIMA", "DEPARTAMEN": "LIMA", "Zonas": "Todas Zonas", "tipo_influencia": "Directa", "abreviatura": "LUR", "min_distance_m": null, "susc_inund_niv": "Alto", "susc_mmasa_niv": null, "susc_niv": "Alto", "canalC_niv": null, "exposicion_niv": "Alto" }, "geometry": { "type": "Point", "coordinates": [ -76.921541, -12.256287 ] } },
{ "type": "Feature", "properties": { "entity_id": "1490", "entity_type": "puentes", "v_nom_infr": "PTE. MAMACONA", "v_tip_infr": "Puente", "v_cod_ruta": "PE-1S", "estado": "EXISTENTES", "evento": null, "fuente_des": "Inventario vial básico 2010, actualizado con las intervenciones a cargo de PROVIAS Nacional - marzo 22", "sububigeo": "15011900", "UBIGEO": "150119", "DISTRITO": "LURIN", "PROVINCIA": "LIMA", "DEPARTAMEN": "LIMA", "Zonas": "Todas Zonas", "tipo_influencia": "Directa", "abreviatura": "LUR", "min_distance_m": 930.39518946566682, "susc_inund_niv": null, "susc_mmasa_niv": null, "susc_niv": null, "canalC_niv": "Alto", "exposicion_niv": "Alto" }, "geometry": { "type": "Point", "coordinates": [ -76.907548, -12.265097 ] } },
{ "type": "Feature", "properties": { "entity_id": "1491", "entity_type": "puentes", "v_nom_infr": "SIN NOMBRE", "v_tip_infr": "Puente", "v_cod_ruta": "PE-1S", "estado": "EXISTENTES", "evento": null, "fuente_des": "Inventario vial básico 2010, actualizado con las intervenciones a cargo de PROVIAS Nacional - marzo 22", "sububigeo": "15011900", "UBIGEO": "150119", "DISTRITO": "LURIN", "PROVINCIA": "LIMA", "DEPARTAMEN": "LIMA", "Zonas": "Todas Zonas", "tipo_influencia": "Directa", "abreviatura": "LUR", "min_distance_m": 108.39639643631038, "susc_inund_niv": null, "susc_mmasa_niv": null, "susc_niv": null, "canalC_niv": "Alto", "exposicion_niv": "Alto" }, "geometry": { "type": "Point", "coordinates": [ -76.900174, -12.269716 ] } },
{ "type": "Feature", "properties": { "entity_id": "1492", "entity_type": "puentes", "v_nom_infr": "PTE. ARICA", "v_tip_infr": "Puente", "v_cod_ruta": "PE-1S", "estado": "EXISTENTES", "evento": null, "fuente_des": "Inventario vial básico 2010, actualizado con las intervenciones a cargo de PROVIAS Nacional - marzo 22", "sububigeo": "15011900", "UBIGEO": "150119", "DISTRITO": "LURIN", "PROVINCIA": "LIMA", "DEPARTAMEN": "LIMA", "Zonas": "Todas Zonas", "tipo_influencia": "Directa", "abreviatura": "LUR", "min_distance_m": null, "susc_inund_niv": null, "susc_mmasa_niv": null, "susc_niv": null, "canalC_niv": null, "exposicion_niv": null }, "geometry": { "type": "Point", "coordinates": [ -76.845003, -12.301878 ] } },
{ "type": "Feature", "properties": { "entity_id": "1504", "entity_type": "puentes", "v_nom_infr": "PTE. ALIPIO PONCE", "v_tip_infr": "Puente", "v_cod_ruta": "PE-1S", "estado": "EXISTENTES", "evento": null, "fuente_des": "Inventario vial básico 2010, actualizado con las intervenciones a cargo de PROVIAS Nacional - marzo 22", "sububigeo": "15013300", "UBIGEO": "150133", "DISTRITO": "SAN JUAN DE MIRAFLORES", "PROVINCIA": "LIMA", "DEPARTAMEN": "LIMA", "Zonas": "Todas Zonas", "tipo_influencia": "Indirecta", "abreviatura": "SJM", "min_distance_m": null, "susc_inund_niv": null, "susc_mmasa_niv": null, "susc_niv": null, "canalC_niv": null, "exposicion_niv": null }, "geometry": { "type": "Point", "coordinates": [ -76.97969, -12.169372 ] } },
{ "type": "Feature", "properties": { "entity_id": "2503", "entity_type": "puentes", "v_nom_infr": "PAMONTE", "v_tip_infr": "Puente", "v_cod_ruta": "PE-22B", "estado": "EXISTENTES", "evento": null, "fuente_des": "Inventario vial básico 2010, actualizado con las intervenciones a cargo de PROVIAS Nacional - marzo 22", "sububigeo": "12070600", "UBIGEO": "120706", "DISTRITO": "PALCA", "PROVINCIA": "TARMA", "DEPARTAMEN": "JUNIN", "Zonas": "Todas Zonas", "tipo_influencia": "Directa", "abreviatura": "PAL", "min_distance_m": null, "susc_inund_niv": null, "susc_mmasa_niv": null, "susc_niv": null, "canalC_niv": null, "exposicion_niv": null }, "geometry": { "type": "Point", "coordinates": [ -75.565906, -11.284925 ] } },
{ "type": "Feature", "properties": { "entity_id": "2505", "entity_type": "puentes", "v_nom_infr": "VILCABAMBA", "v_tip_infr": "Puente", "v_cod_ruta": "PE-22B", "estado": "EXISTENTES", "evento": null, "fuente_des": "Inventario vial básico 2010, actualizado con las intervenciones a cargo de PROVIAS Nacional - marzo 22", "sububigeo": "12070200", "UBIGEO": "120702", "DISTRITO": "ACOBAMBA", "PROVINCIA": "TARMA", "DEPARTAMEN": "JUNIN", "Zonas": "Todas Zonas", "tipo_influencia": "Indirecta", "abreviatura": "ACO", "min_distance_m": null, "susc_inund_niv": null, "susc_mmasa_niv": null, "susc_niv": null, "canalC_niv": null, "exposicion_niv": null }, "geometry": { "type": "Point", "coordinates": [ -75.629575, -11.357222 ] } }
]
}
